country,postal_code,region,latitude,longitude,notes
US,99501,AK,61.2116,-149.8761,US_state_cap_city_AK
US,99505,AK,59.8666,-158.5996,US_state_cap_city_AK
US,99546,AK,51.874,-176.634,US_state_cap_pool_AK
US,99553,AK,54.143,-165.7854,US_state_cap_pool_AK
US,99574,AK,60.5362,-145.7534,US_state_cap_pool_AK
US,99585,AK,61.9287,-162.268,US_state_cap_pool_AK
US,99615,AK,57.6036,-153.3751,US_state_cap_city_AK
US,99623,AK,61.5463,-149.5901,US_state_cap_city_AK
US,99627,AK,62.9457,-155.5712,US_state_cap_pool_AK
US,99630,AK,60.3657,-166.2836,US_state_cap_pool_AK
US,99638,AK,52.9381,-168.8678,US_state_cap_pool_AK
US,99647,AK,59.8681,-154.0757,US_state_cap_pool_AK
US,99648,AK,55.9453,-159.2593,US_state_cap_pool_AK
US,99660,AK,57.1842,-170.2764,US_state_cap_pool_AK
US,99689,AK,59.812,-139.5505,US_state_cap_pool_AK
US,99701,AK,64.8378,-147.7164,US_state_cap_city_AK
US,99721,AK,68.1433,-151.7358,US_state_cap_pool_AK
US,99723,AK,71.2346,-156.8174,US_state_cap_pool_AK
US,99742,AK,63.7766,-171.7017,US_state_cap_pool_AK
US,99745,AK,66.0382,-154.2644,US_state_cap_pool_AK
US,99747,AK,70.1319,-143.6239,US_state_cap_pool_AK
US,99749,AK,66.975,-160.4228,US_state_cap_pool_AK
US,99764,AK,62.9617,-141.9372,US_state_cap_pool_AK
US,99766,AK,68.3486,-166.7347,US_state_cap_pool_AK
US,99771,AK,64.3537,-161.1932,US_state_cap_pool_AK
US,99785,AK,65.3342,-166.4786,US_state_cap_pool_AK
US,99788,AK,66.6544,-143.7222,US_state_cap_pool_AK
US,99789,AK,70.1927,-150.9971,US_state_cap_pool_AK
US,99801,AK,58.3628,-134.5294,US_state_cap_city_AK
US,99926,AK,55.1215,-131.579,US_state_cap_pool_AK
US,35201,AL,33.5207,-86.8025,US_warm_major_cities
US,35401,AL,33.1969,-87.5627,US_warm_major_cities
US,35440,AL,33.311,-87.1898,US_warm_coarse_step_2.5
US,35582,AL,34.4513,-88.1129,US_state_min_fill_AL
US,35801,AL,34.7269,-86.5673,US_warm_major_cities
US,36101,AL,32.357,-86.2578,US_warm_major_cities
US,36310,AL,31.5755,-85.279,US_warm_coarse_step_2.5
US,36601,AL,30.6944,-88.0431,US_warm_major_cities
US,36915,AL,31.9879,-88.3367,US_state_min_fill_AL
US,71631,AR,33.5497,-92.2604,US_grid_step_1.6_nonwarm
US,71826,AR,33.107,-93.6275,US_grid_step_1.6_nonwarm
US,72001,AR,35.047,-92.9033,US_grid_step_1.6_nonwarm
US,72002,AR,34.6313,-92.4727,US_grid_step_1.6_nonwarm
US,72012,AR,35.0937,-91.9074,US_midlat_extra_step_1.1_lat35_40
US,72311,AR,34.7195,-90.8969,US_grid_step_1.6_nonwarm
US,72322,AR,35.0562,-90.8288,US_midlat_extra_step_1.1_lat35_40
US,72410,AR,35.9423,-91.081,US_grid_step_1.6_nonwarm
US,72513,AR,36.2201,-91.6421,US_grid_step_1.6_nonwarm
US,72611,AR,36.2998,-93.2792,US_midlat_extra_step_1.1_lat35_40
US,72820,AR,35.41,-93.7286,US_grid_step_1.6_nonwarm
US,72826,AR,35.1304,-93.7116,US_midlat_extra_step_1.1_lat35_40
US,85119,AZ,33.4001,-111.5028,US_grid_step_1.6_nonwarm
US,85320,AZ,33.9186,-113.2134,US_grid_step_1.6_nonwarm
US,85321,AZ,32.2295,-112.6542,US_grid_step_1.6_nonwarm
US,85341,AZ,31.8826,-112.8157,US_grid_step_1.6_nonwarm
US,85602,AZ,31.9883,-110.2941,US_grid_step_1.6_nonwarm
US,85605,AZ,32.3265,-109.487,US_grid_step_1.6_nonwarm
US,85645,AZ,31.6723,-111.0986,US_grid_step_1.6_nonwarm
US,85920,AZ,33.8279,-109.1283,US_grid_step_1.6_nonwarm
US,86001,AZ,35.1859,-111.662,US_midlat_extra_step_1.1_lat35_40
US,86015,AZ,35.2381,-111.8335,US_grid_step_1.6_nonwarm
US,86021,AZ,36.9903,-112.9758,US_midlat_extra_step_1.1_lat35_40
US,86030,AZ,35.9278,-110.6729,US_midlat_extra_step_1.1_lat35_40
US,86033,AZ,36.6883,-110.2652,US_midlat_extra_step_1.1_lat35_40
US,86040,AZ,36.9147,-111.4558,US_midlat_extra_step_1.1_lat35_40
US,86047,AZ,35.0242,-110.6974,US_midlat_extra_step_1.1_lat35_40
US,86320,AZ,35.215,-112.5027,US_grid_step_1.6_nonwarm
US,86322,AZ,34.5697,-111.8551,US_grid_step_1.6_nonwarm
US,86334,AZ,35.0313,-112.5441,US_midlat_extra_step_1.1_lat35_40
US,86401,AZ,35.1328,-113.7033,US_midlat_extra_step_1.1_lat35_40
US,86429,AZ,35.1715,-114.5386,US_midlat_extra_step_1.1_lat35_40
US,86431,AZ,35.3896,-114.2221,US_midlat_extra_step_1.1_lat35_40
US,86520,AZ,36.1708,-109.9465,US_grid_step_1.6_nonwarm
US,91301,CA,34.1227,-118.7573,US_grid_step_1.6_nonwarm
US,92225,CA,33.6103,-114.5963,US_grid_step_1.6_nonwarm
US,92226,CA,33.5987,-114.6525,US_grid_step_1.6_nonwarm
US,92304,CA,34.5578,-115.7444,US_grid_step_1.6_nonwarm
US,92309,CA,35.3606,-116.0638,US_midlat_extra_step_1.1_lat35_40
US,92536,CA,33.4473,-116.7997,US_grid_step_1.6_nonwarm
US,92656,CA,33.5701,-117.7086,US_grid_step_1.6_nonwarm
US,93201,CA,35.8877,-119.4873,US_grid_step_1.6_nonwarm
US,93202,CA,36.3095,-119.7053,US_midlat_extra_step_1.1_lat35_40
US,93203,CA,35.1966,-118.8336,US_midlat_extra_step_1.1_lat35_40
US,93205,CA,35.587,-118.4847,US_midlat_extra_step_1.1_lat35_40
US,93420,CA,35.1661,-120.4651,US_grid_step_1.6_nonwarm
US,93422,CA,35.4754,-120.6638,US_grid_step_1.6_nonwarm
US,93504,CA,35.1871,-117.8854,US_midlat_extra_step_1.1_lat35_40
US,93510,CA,34.4835,-118.1959,US_grid_step_1.6_nonwarm
US,93512,CA,37.8926,-118.5647,US_midlat_extra_step_1.1_lat35_40
US,93513,CA,37.1679,-118.2916,US_grid_step_1.6_nonwarm
US,93516,CA,35.0037,-117.6629,US_midlat_extra_step_1.1_lat35_40
US,93519,CA,35.3089,-117.9684,US_grid_step_1.6_nonwarm
US,93522,CA,36.2948,-117.5957,US_midlat_extra_step_1.1_lat35_40
US,93601,CA,37.4076,-119.7233,US_grid_step_1.6_nonwarm
US,93920,CA,36.2458,-121.7009,US_grid_step_1.6_nonwarm
US,94501,CA,37.7706,-122.2648,US_grid_step_1.6_nonwarm
US,94508,CA,38.5769,-122.4477,US_grid_step_1.6_nonwarm
US,95001,CA,36.979,-121.898,US_midlat_extra_step_1.1_lat35_40
US,95006,CA,37.1547,-122.1365,US_midlat_extra_step_1.1_lat35_40
US,95220,CA,38.2004,-121.2186,US_grid_step_1.6_nonwarm
US,95221,CA,38.0838,-120.5608,US_midlat_extra_step_1.1_lat35_40
US,95301,CA,37.3489,-120.6028,US_midlat_extra_step_1.1_lat35_40
US,95410,CA,39.2131,-123.72,US_grid_step_1.6_nonwarm
US,95417,CA,39.6949,-123.5527,US_midlat_extra_step_1.1_lat35_40
US,95511,CA,40.1676,-123.6192,US_grid_step_1.6_nonwarm
US,95518,CA,40.8685,-124.0856,US_north_extra_step_0.9_lat40plus
US,95536,CA,40.5259,-124.2514,US_north_extra_step_0.9_lat40plus
US,95558,CA,40.2868,-124.2271,US_north_extra_step_0.9_lat40plus
US,95843,CA,38.7159,-121.3648,US_midlat_extra_step_1.1_lat35_40
US,95910,CA,39.4826,-120.8483,US_grid_step_1.6_nonwarm
US,95913,CA,39.6197,-122.1927,US_midlat_extra_step_1.1_lat35_40
US,95915,CA,40.006,-121.2491,US_north_extra_step_0.9_lat40plus
US,95916,CA,39.6776,-121.3689,US_midlat_extra_step_1.1_lat35_40
US,96006,CA,41.2175,-120.9432,US_grid_step_1.6_nonwarm
US,96007,CA,40.4574,-122.3282,US_grid_step_1.6_nonwarm
US,96008,CA,40.7409,-122.0725,US_north_extra_step_0.9_lat40plus
US,96010,CA,40.748,-123.229,US_north_extra_step_0.9_lat40plus
US,96047,CA,40.4318,-122.654,US_north_extra_step_0.9_lat40plus
US,96109,CA,40.0008,-120.1077,US_north_extra_step_0.9_lat40plus
US,96110,CA,41.3163,-120.1158,US_north_extra_step_0.9_lat40plus
US,96129,CA,39.7721,-120.4051,US_midlat_extra_step_1.1_lat35_40
US,80001,CO,39.8028,-105.0875,US_grid_step_1.6_nonwarm
US,80101,CO,39.4203,-103.9846,US_grid_step_1.6_nonwarm
US,80102,CO,39.7589,-104.4275,US_midlat_extra_step_1.1_lat35_40
US,80420,CO,39.2839,-106.0628,US_grid_step_1.6_nonwarm
US,80421,CO,39.4482,-105.4693,US_midlat_extra_step_1.1_lat35_40
US,80426,CO,39.8739,-106.8856,US_midlat_extra_step_1.1_lat35_40
US,80428,CO,40.7268,-106.9215,US_north_extra_step_0.9_lat40plus
US,80459,CO,40.0632,-106.3955,US_north_extra_step_0.9_lat40plus
US,80510,CO,40.2268,-105.5201,US_north_extra_step_0.9_lat40plus
US,80513,CO,40.2993,-105.1055,US_north_extra_step_0.9_lat40plus
US,80610,CO,40.5938,-104.7356,US_north_extra_step_0.9_lat40plus
US,80611,CO,40.6392,-104.2871,US_north_extra_step_0.9_lat40plus
US,80720,CO,40.1803,-103.2259,US_grid_step_1.6_nonwarm
US,80721,CO,40.6824,-102.1706,US_grid_step_1.6_nonwarm
US,80722,CO,40.5082,-103.2749,US_north_extra_step_0.9_lat40plus
US,80723,CO,40.2603,-103.6279,US_north_extra_step_0.9_lat40plus
US,80801,CO,39.6909,-103.1373,US_midlat_extra_step_1.1_lat35_40
US,80802,CO,38.8417,-102.194,US_grid_step_1.6_nonwarm
US,80804,CO,39.3025,-103.271,US_midlat_extra_step_1.1_lat35_40
US,81020,CO,37.3933,-104.6769,US_grid_step_1.6_nonwarm
US,81021,CO,38.4068,-103.3697,US_midlat_extra_step_1.1_lat35_40
US,81022,CO,38.1025,-104.5298,US_midlat_extra_step_1.1_lat35_40
US,81025,CO,38.2646,-104.2585,US_midlat_extra_step_1.1_lat35_40
US,81027,CO,37.0518,-103.8741,US_grid_step_1.6_nonwarm
US,81101,CO,37.4703,-105.8786,US_grid_step_1.6_nonwarm
US,81120,CO,37.0855,-106.0379,US_midlat_extra_step_1.1_lat35_40
US,81121,CO,37.0281,-107.4192,US_grid_step_1.6_nonwarm
US,81130,CO,37.8164,-106.9277,US_midlat_extra_step_1.1_lat35_40
US,81320,CO,37.7182,-108.7917,US_midlat_extra_step_1.1_lat35_40
US,81410,CO,38.7975,-107.9738,US_grid_step_1.6_nonwarm
US,81411,CO,38.2509,-108.9799,US_midlat_extra_step_1.1_lat35_40
US,81611,CO,39.1951,-106.8236,US_midlat_extra_step_1.1_lat35_40
US,81620,CO,39.6313,-106.5108,US_midlat_extra_step_1.1_lat35_40
US,81633,CO,40.377,-108.399,US_north_extra_step_0.9_lat40plus
US,81638,CO,40.325,-107.5841,US_north_extra_step_0.9_lat40plus
US,81640,CO,40.6738,-108.3699,US_north_extra_step_0.9_lat40plus
US,06002,CT,41.8316,-72.7249,US_state_min_fill_CT
US,06079,CT,42.032,-73.4038,US_state_min_fill_CT
US,06084,CT,41.8696,-72.3718,US_state_min_fill_CT
US,06230,CT,41.8473,-72.0253,US_grid_step_1.6_nonwarm
US,06384,CT,41.5831,-71.855,US_state_min_fill_CT
US,06388,CT,41.3441,-71.9765,US_state_min_fill_CT
US,06415,CT,41.5662,-72.3441,US_state_min_fill_CT
US,06437,CT,41.3154,-72.6968,US_state_min_fill_CT
US,06444,CT,41.5637,-72.9257,US_state_min_fill_CT
US,06607,CT,41.1784,-73.165,US_state_min_fill_CT
US,06752,CT,41.5287,-73.3609,US_state_min_fill_CT
US,06790,CT,41.8131,-73.1156,US_state_min_fill_CT
US,06831,CT,41.0549,-73.6594,US_state_min_fill_CT
US,06879,CT,41.2815,-73.4982,US_state_min_fill_CT
US,20001,DC,38.9122,-77.0177,US_state_min_fill_DC
US,20007,DC,38.9144,-77.074,US_state_min_fill_DC
US,20011,DC,38.9518,-77.0203,US_state_min_fill_DC
US,20015,DC,38.9658,-77.068,US_state_min_fill_DC
US,20018,DC,38.9277,-76.9762,US_state_min_fill_DC
US,20019,DC,38.8902,-76.9376,US_state_min_fill_DC
US,20020,DC,38.86,-76.9742,US_state_min_fill_DC
US,20242,DC,38.8678,-77.0289,US_state_min_fill_DC
US,20375,DC,38.8262,-77.0174,US_state_min_fill_DC
US,20522,DC,38.8932,-77.049,US_state_min_fill_DC
US,19709,DE,39.4815,-75.6832,US_state_min_fill_DE
US,19726,DE,39.6621,-75.5663,US_state_min_fill_DE
US,19736,DE,39.8082,-75.6755,US_state_min_fill_DE
US,19901,DE,39.1564,-75.4955,US_state_min_fill_DE
US,19944,DE,38.4865,-75.0589,US_state_min_fill_DE
US,19947,DE,38.679,-75.3932,US_state_min_fill_DE
US,19954,DE,38.9114,-75.5064,US_state_min_fill_DE
US,19964,DE,39.0998,-75.7287,US_state_min_fill_DE
US,19969,DE,38.7521,-75.1877,US_state_min_fill_DE
US,19973,DE,38.6404,-75.6041,US_state_min_fill_DE
US,32099,FL,30.3375,-81.7686,US_warm_major_cities
US,32301,FL,30.4286,-84.2593,US_warm_major_cities
US,32320,FL,29.7255,-85.0063,US_warm_coarse_step_2.5
US,32501,FL,30.4223,-87.2248,US_warm_major_cities
US,32615,FL,29.8135,-82.472,US_warm_coarse_step_2.5
US,32801,FL,28.5399,-81.3727,US_warm_major_cities
US,33043,FL,24.68,-81.362,US_warm_coarse_step_2.5
US,33101,FL,25.7791,-80.1978,US_warm_major_cities
US,33301,FL,26.1216,-80.1288,US_warm_major_cities
US,33601,FL,27.9961,-82.582,US_warm_major_cities
US,33701,FL,27.7723,-82.6386,US_warm_major_cities
US,33920,FL,26.7147,-81.6351,US_warm_coarse_step_2.5
US,30006,GA,33.9526,-84.5499,US_warm_major_cities
US,30101,GA,34.0756,-84.6477,US_warm_coarse_step_2.5
US,30301,GA,33.8444,-84.4741,US_warm_major_cities
US,30410,GA,32.2143,-82.4762,US_warm_coarse_step_2.5
US,30901,GA,33.4601,-81.973,US_warm_major_cities
US,31001,GA,31.9648,-83.3068,US_warm_coarse_step_2.5
US,31201,GA,32.8095,-83.6168,US_warm_major_cities
US,31401,GA,32.0749,-81.0883,US_warm_major_cities
US,31562,GA,30.5224,-82.0376,US_state_min_fill_GA
US,31901,GA,32.473,-84.9795,US_warm_major_cities
US,96707,HI,21.3453,-158.087,US_warm_major_cities
US,96749,HI,19.5893,-154.9926,US_warm_coarse_step_2.5
US,96761,HI,20.9174,-156.6772,US_warm_major_cities
US,96801,HI,21.3278,-157.8294,US_warm_major_cities
US,96898,HI,19.2836,166.6419,US_warm_coarse_step_2.5
US,50001,IA,41.3737,-93.3767,US_grid_step_1.6_nonwarm
US,50003,IA,41.6221,-94.038,US_north_extra_step_0.9_lat40plus
US,50005,IA,42.1143,-92.9882,US_north_extra_step_0.9_lat40plus
US,50020,IA,41.45,-94.7794,US_grid_step_1.6_nonwarm
US,50510,IA,42.7784,-94.9824,US_grid_step_1.6_nonwarm
US,50511,IA,43.066,-94.2306,US_north_extra_step_0.9_lat40plus
US,50601,IA,42.5527,-93.0608,US_grid_step_1.6_nonwarm
US,50603,IA,43.1482,-92.4237,US_north_extra_step_0.9_lat40plus
US,50606,IA,42.7338,-91.6668,US_north_extra_step_0.9_lat40plus
US,50830,IA,41.0401,-94.194,US_north_extra_step_0.9_lat40plus
US,50833,IA,40.6683,-94.7324,US_north_extra_step_0.9_lat40plus
US,51001,IA,42.8354,-96.5225,US_grid_step_1.6_nonwarm
US,51003,IA,42.9782,-96.0173,US_north_extra_step_0.9_lat40plus
US,51230,IA,43.3201,-96.291,US_grid_step_1.6_nonwarm
US,51520,IA,41.9504,-95.4623,US_north_extra_step_0.9_lat40plus
US,52201,IA,41.3202,-91.5472,US_north_extra_step_0.9_lat40plus
US,52202,IA,42.1583,-91.6392,US_grid_step_1.6_nonwarm
US,52203,IA,41.8313,-91.8855,US_north_extra_step_0.9_lat40plus
US,52530,IA,40.9957,-92.3162,US_grid_step_1.6_nonwarm
US,83210,ID,43.0049,-112.84,US_grid_step_1.6_nonwarm
US,83213,ID,43.6355,-113.3176,US_grid_step_1.6_nonwarm
US,83214,ID,42.56,-112.1746,US_north_extra_step_0.9_lat40plus
US,83218,ID,43.3155,-112.1644,US_north_extra_step_0.9_lat40plus
US,83223,ID,42.184,-111.4086,US_north_extra_step_0.9_lat40plus
US,83226,ID,44.4969,-114.1946,US_north_extra_step_0.9_lat40plus
US,83227,ID,44.2733,-114.4102,US_north_extra_step_0.9_lat40plus
US,83243,ID,42.1619,-112.6539,US_north_extra_step_0.9_lat40plus
US,83278,ID,44.3714,-114.8561,US_far_north_extra_step_0.7_lat44plus
US,83311,ID,42.3896,-113.5567,US_north_extra_step_0.9_lat40plus
US,83312,ID,42.0846,-113.6283,US_grid_step_1.6_nonwarm
US,83313,ID,43.4397,-114.2498,US_grid_step_1.6_nonwarm
US,83314,ID,42.9449,-114.9104,US_north_extra_step_0.9_lat40plus
US,83327,ID,43.3675,-114.7908,US_north_extra_step_0.9_lat40plus
US,83420,ID,44.0153,-111.4253,US_far_north_extra_step_0.7_lat44plus
US,83423,ID,44.1858,-112.3259,US_north_extra_step_0.9_lat40plus
US,83429,ID,44.4466,-111.3679,US_north_extra_step_0.9_lat40plus
US,83462,ID,45.255,-113.8573,US_grid_step_1.6_nonwarm
US,83464,ID,44.7389,-113.4926,US_far_north_extra_step_0.7_lat44plus
US,83469,ID,45.3769,-114.277,US_far_north_extra_step_0.7_lat44plus
US,83520,ID,46.5394,-116.3233,US_grid_step_1.6_nonwarm
US,83522,ID,46.0448,-116.3733,US_grid_step_1.6_nonwarm
US,83525,ID,45.7896,-115.5024,US_north_extra_step_0.9_lat40plus
US,83536,ID,46.2186,-116.0347,US_north_extra_step_0.9_lat40plus
US,83601,ID,43.8479,-115.2538,US_grid_step_1.6_nonwarm
US,83602,ID,44.0804,-116.124,US_north_extra_step_0.9_lat40plus
US,83604,ID,42.614,-115.8419,US_grid_step_1.6_nonwarm
US,83610,ID,44.5922,-116.6757,US_north_extra_step_0.9_lat40plus
US,83611,ID,44.6927,-115.6417,US_north_extra_step_0.9_lat40plus
US,83619,ID,44.0027,-116.9143,US_far_north_extra_step_0.7_lat44plus
US,83635,ID,44.8327,-116.0848,US_far_north_extra_step_0.7_lat44plus
US,83650,ID,42.8481,-116.6371,US_north_extra_step_0.9_lat40plus
US,83654,ID,44.994,-116.2874,US_far_north_extra_step_0.7_lat44plus
US,83677,ID,44.9698,-115.4963,US_far_north_extra_step_0.7_lat44plus
US,83801,ID,47.9267,-116.7318,US_north_extra_step_0.9_lat40plus
US,83802,ID,47.2714,-115.866,US_north_extra_step_0.9_lat40plus
US,83805,ID,48.7306,-116.3322,US_grid_step_1.6_nonwarm
US,83806,ID,46.8588,-116.3935,US_north_extra_step_0.9_lat40plus
US,83810,ID,47.5522,-116.4431,US_far_north_extra_step_0.7_lat44plus
US,83811,ID,48.1405,-116.1699,US_far_north_extra_step_0.7_lat44plus
US,83826,ID,48.9994,-116.1813,US_far_north_extra_step_0.7_lat44plus
US,83827,ID,46.7835,-116.1799,US_far_north_extra_step_0.7_lat44plus
US,60002,IL,42.4648,-88.1178,US_north_extra_step_0.9_lat40plus
US,60101,IL,41.9335,-88.0054,US_grid_step_1.6_nonwarm
US,60102,IL,42.1641,-88.3064,US_north_extra_step_0.9_lat40plus
US,60803,IL,41.6721,-87.7357,US_grid_step_1.6_nonwarm
US,60910,IL,41.0798,-87.8114,US_north_extra_step_0.9_lat40plus
US,61001,IL,42.4714,-90.1201,US_north_extra_step_0.9_lat40plus
US,61230,IL,41.7659,-90.2081,US_grid_step_1.6_nonwarm
US,61234,IL,41.398,-89.9129,US_north_extra_step_0.9_lat40plus
US,61310,IL,41.7042,-89.3472,US_north_extra_step_0.9_lat40plus
US,61410,IL,40.8023,-90.4009,US_grid_step_1.6_nonwarm
US,61411,IL,40.3852,-90.5037,US_north_extra_step_0.9_lat40plus
US,61720,IL,40.5441,-88.5266,US_grid_step_1.6_nonwarm
US,61721,IL,40.3613,-89.3231,US_north_extra_step_0.9_lat40plus
US,61722,IL,40.412,-88.6296,US_north_extra_step_0.9_lat40plus
US,61811,IL,40.3007,-87.608,US_grid_step_1.6_nonwarm
US,61910,IL,39.687,-88.3037,US_midlat_extra_step_1.1_lat35_40
US,62214,IL,38.3815,-89.5794,US_grid_step_1.6_nonwarm
US,62215,IL,38.532,-89.6202,US_grid_step_1.6_nonwarm
US,62410,IL,38.5232,-87.7219,US_midlat_extra_step_1.1_lat35_40
US,62601,IL,39.7517,-90.0458,US_midlat_extra_step_1.1_lat35_40
US,62610,IL,39.5606,-90.434,US_midlat_extra_step_1.1_lat35_40
US,62611,IL,39.8979,-90.3636,US_midlat_extra_step_1.1_lat35_40
US,62806,IL,38.374,-88.0636,US_midlat_extra_step_1.1_lat35_40
US,62807,IL,38.7231,-88.9157,US_grid_step_1.6_nonwarm
US,46001,IN,40.2561,-85.6681,US_north_extra_step_0.9_lat40plus
US,46102,IN,39.9956,-86.6198,US_grid_step_1.6_nonwarm
US,46104,IN,39.6488,-85.5828,US_grid_step_1.6_nonwarm
US,46701,IN,41.3482,-85.4142,US_north_extra_step_0.9_lat40plus
US,46910,IN,41.0389,-86.0395,US_grid_step_1.6_nonwarm
US,47320,IN,40.292,-85.258,US_north_extra_step_0.9_lat40plus
US,47420,IN,38.9132,-86.5489,US_midlat_extra_step_1.1_lat35_40
US,47916,IN,39.9836,-87.0554,US_midlat_extra_step_1.1_lat35_40
US,47918,IN,40.2811,-87.2241,US_north_extra_step_0.9_lat40plus
US,47920,IN,40.5248,-86.8238,US_north_extra_step_0.9_lat40plus
US,66002,KS,39.5594,-95.1304,US_midlat_extra_step_1.1_lat35_40
US,66403,KS,39.8707,-96.2676,US_midlat_extra_step_1.1_lat35_40
US,66710,KS,37.5197,-95.6483,US_midlat_extra_step_1.1_lat35_40
US,66830,KS,38.6393,-96.1017,US_midlat_extra_step_1.1_lat35_40
US,66930,KS,39.7044,-97.4465,US_midlat_extra_step_1.1_lat35_40
US,66932,KS,39.7719,-98.9077,US_midlat_extra_step_1.1_lat35_40
US,67001,KS,37.7797,-97.6366,US_midlat_extra_step_1.1_lat35_40
US,67002,KS,37.6985,-97.1179,US_grid_step_1.6_nonwarm
US,67004,KS,37.284,-97.7557,US_midlat_extra_step_1.1_lat35_40
US,67008,KS,37.4343,-96.7661,US_midlat_extra_step_1.1_lat35_40
US,67410,KS,38.9371,-97.2063,US_grid_step_1.6_nonwarm
US,67510,KS,37.9626,-98.2071,US_grid_step_1.6_nonwarm
US,67511,KS,38.4528,-99.0115,US_midlat_extra_step_1.1_lat35_40
US,67513,KS,38.457,-99.5378,US_grid_step_1.6_nonwarm
US,67515,KS,38.6403,-100.0462,US_midlat_extra_step_1.1_lat35_40
US,67518,KS,38.4445,-100.1949,US_midlat_extra_step_1.1_lat35_40
US,67621,KS,39.8037,-99.1255,US_grid_step_1.6_nonwarm
US,67623,KS,39.4514,-98.9539,US_midlat_extra_step_1.1_lat35_40
US,67701,KS,39.383,-101.0442,US_midlat_extra_step_1.1_lat35_40
US,67730,KS,39.7926,-101.0318,US_midlat_extra_step_1.1_lat35_40
US,67731,KS,39.7579,-101.5319,US_midlat_extra_step_1.1_lat35_40
US,67831,KS,37.1823,-99.759,US_grid_step_1.6_nonwarm
US,67836,KS,38.0215,-102.007,US_grid_step_1.6_nonwarm
US,67950,KS,37.0154,-101.9012,US_midlat_extra_step_1.1_lat35_40
US,40003,KY,38.2608,-85.0651,US_midlat_extra_step_1.1_lat35_40
US,40104,KY,38.0393,-86.2991,US_midlat_extra_step_1.1_lat35_40
US,40402,KY,37.3052,-83.9711,US_grid_step_1.6_nonwarm
US,41201,KY,38.0741,-82.7447,US_midlat_extra_step_1.1_lat35_40
US,41311,KY,37.5999,-83.714,US_midlat_extra_step_1.1_lat35_40
US,42020,KY,36.6923,-88.2929,US_midlat_extra_step_1.1_lat35_40
US,42120,KY,36.6775,-86.2636,US_grid_step_1.6_nonwarm
US,42122,KY,36.863,-86.3632,US_grid_step_1.6_nonwarm
US,42201,KY,37.2539,-86.6817,US_grid_step_1.6_nonwarm
US,42202,KY,36.6914,-86.8585,US_grid_step_1.6_nonwarm
US,42402,KY,37.8709,-87.4625,US_midlat_extra_step_1.1_lat35_40
US,42602,KY,36.6857,-85.1407,US_midlat_extra_step_1.1_lat35_40
US,70001,LA,29.9871,-90.1695,US_warm_major_cities
US,70032,LA,29.9612,-89.9965,US_warm_coarse_step_2.5
US,70112,LA,29.9605,-90.0753,US_warm_major_cities
US,70420,LA,30.4837,-90.0041,US_warm_coarse_step_2.5
US,70426,LA,30.9224,-89.8567,US_warm_coarse_step_2.5
US,70501,LA,30.2361,-92.0083,US_warm_major_cities
US,70510,LA,29.9466,-92.2416,US_warm_coarse_step_2.5
US,70801,LA,30.4492,-91.1856,US_warm_major_cities
US,71101,LA,32.5037,-93.7487,US_warm_major_cities
US,01050,MA,42.2653,-72.8733,US_state_min_fill_MA
US,01057,MA,42.101,-72.3196,US_state_min_fill_MA
US,01220,MA,42.6223,-73.1172,US_north_extra_step_0.9_lat40plus
US,01222,MA,42.0596,-73.3202,US_state_min_fill_MA
US,01368,MA,42.6722,-72.1964,US_state_min_fill_MA
US,01529,MA,42.0331,-71.5798,US_state_min_fill_MA
US,01718,MA,42.4851,-71.4328,US_north_extra_step_0.9_lat40plus
US,01913,MA,42.8559,-70.9367,US_north_extra_step_0.9_lat40plus
US,02351,MA,42.1167,-70.9543,US_grid_step_1.6_nonwarm
US,02535,MA,41.3575,-70.7416,US_north_extra_step_0.9_lat40plus
US,02554,MA,41.2725,-70.0932,US_grid_step_1.6_nonwarm
US,02630,MA,41.6983,-70.3001,US_grid_step_1.6_nonwarm
US,02631,MA,41.7492,-70.0699,US_north_extra_step_0.9_lat40plus
US,02724,MA,41.685,-71.1748,US_state_min_fill_MA
US,20606,MD,38.2471,-76.7481,US_grid_step_1.6_nonwarm
US,20607,MD,38.672,-77.0162,US_midlat_extra_step_1.1_lat35_40
US,21001,MD,39.5109,-76.1805,US_grid_step_1.6_nonwarm
US,21520,MD,39.6355,-79.3085,US_grid_step_1.6_nonwarm
US,21530,MD,39.6993,-78.5739,US_state_min_fill_MD
US,21601,MD,38.7768,-76.0758,US_state_min_fill_MD
US,21723,MD,39.3211,-77.0051,US_state_min_fill_MD
US,21767,MD,39.6996,-77.7499,US_state_min_fill_MD
US,21811,MD,38.3475,-75.1866,US_grid_step_1.6_nonwarm
US,21866,MD,37.9666,-76.0235,US_state_min_fill_MD
US,04001,ME,43.5494,-70.9307,US_grid_step_1.6_nonwarm
US,04210,ME,44.0948,-70.239,US_far_north_extra_step_0.7_lat44plus
US,04211,ME,44.197,-70.2395,US_far_north_extra_step_0.7_lat44plus
US,04216,ME,44.6637,-70.7967,US_north_extra_step_0.9_lat40plus
US,04401,ME,44.8242,-68.7918,US_north_extra_step_0.9_lat40plus
US,04408,ME,44.8861,-68.2959,US_grid_step_1.6_nonwarm
US,04413,ME,45.5507,-67.7436,US_north_extra_step_0.9_lat40plus
US,04462,ME,45.6596,-68.7101,US_far_north_extra_step_0.7_lat44plus
US,04478,ME,45.8641,-69.8768,US_far_north_extra_step_0.7_lat44plus
US,04535,ME,44.0878,-69.6344,US_north_extra_step_0.9_lat40plus
US,04563,ME,43.9867,-69.2721,US_north_extra_step_0.9_lat40plus
US,04606,ME,44.583,-67.7146,US_grid_step_1.6_nonwarm
US,04609,ME,44.3738,-68.2448,US_far_north_extra_step_0.7_lat44plus
US,04619,ME,45.1715,-67.2641,US_north_extra_step_0.9_lat40plus
US,04626,ME,44.6753,-67.2499,US_north_extra_step_0.9_lat40plus
US,04631,ME,44.92,-67.0074,US_grid_step_1.6_nonwarm
US,04645,ME,44.0561,-68.6206,US_far_north_extra_step_0.7_lat44plus
US,04732,ME,46.6184,-68.3876,US_grid_step_1.6_nonwarm
US,04733,ME,45.8125,-68.4089,US_north_extra_step_0.9_lat40plus
US,04734,ME,46.5048,-67.8686,US_far_north_extra_step_0.7_lat44plus
US,04736,ME,46.8706,-68.0204,US_north_extra_step_0.9_lat40plus
US,04737,ME,46.6109,-69.5223,US_grid_step_1.6_nonwarm
US,04739,ME,47.01,-68.691,US_north_extra_step_0.9_lat40plus
US,04743,ME,47.2587,-68.5895,US_far_north_extra_step_0.7_lat44plus
US,04750,ME,46.9248,-67.8451,US_far_north_extra_step_0.7_lat44plus
US,04764,ME,46.402,-68.5218,US_north_extra_step_0.9_lat40plus
US,04910,ME,44.5355,-69.4683,US_grid_step_1.6_nonwarm
US,04912,ME,44.9388,-69.6695,US_grid_step_1.6_nonwarm
US,04915,ME,44.4354,-69.0148,US_far_north_extra_step_0.7_lat44plus
US,04920,ME,45.0682,-69.8857,US_north_extra_step_0.9_lat40plus
US,04936,ME,45.3356,-70.6283,US_north_extra_step_0.9_lat40plus
US,04945,ME,45.6351,-70.2492,US_far_north_extra_step_0.7_lat44plus
US,48001,MI,42.6367,-82.5866,US_grid_step_1.6_nonwarm
US,48002,MI,42.9388,-82.9198,US_north_extra_step_0.9_lat40plus
US,48101,MI,42.2522,-83.212,US_north_extra_step_0.9_lat40plus
US,48105,MI,42.3042,-83.7068,US_north_extra_step_0.9_lat40plus
US,48401,MI,43.3619,-82.6479,US_grid_step_1.6_nonwarm
US,48467,MI,44.0223,-82.9984,US_far_north_extra_step_0.7_lat44plus
US,48610,MI,44.1395,-84.1872,US_north_extra_step_0.9_lat40plus
US,48624,MI,44.0296,-84.4968,US_far_north_extra_step_0.7_lat44plus
US,48625,MI,44.0285,-84.7729,US_far_north_extra_step_0.7_lat44plus
US,48701,MI,43.5844,-83.5393,US_grid_step_1.6_nonwarm
US,48703,MI,44.0338,-83.702,US_north_extra_step_0.9_lat40plus
US,48705,MI,44.702,-83.5994,US_north_extra_step_0.9_lat40plus
US,48801,MI,43.3809,-84.6635,US_north_extra_step_0.9_lat40plus
US,49010,MI,42.5256,-85.8661,US_north_extra_step_0.9_lat40plus
US,49101,MI,41.9488,-86.4913,US_north_extra_step_0.9_lat40plus
US,49102,MI,41.9484,-86.285,US_north_extra_step_0.9_lat40plus
US,49220,MI,42.0036,-84.3122,US_grid_step_1.6_nonwarm
US,49224,MI,42.2581,-84.7561,US_north_extra_step_0.9_lat40plus
US,49301,MI,42.9566,-85.481,US_grid_step_1.6_nonwarm
US,49303,MI,43.2768,-85.8313,US_north_extra_step_0.9_lat40plus
US,49410,MI,44.0363,-86.2169,US_far_north_extra_step_0.7_lat44plus
US,49431,MI,43.9688,-86.4403,US_north_extra_step_0.9_lat40plus
US,49610,MI,44.7894,-85.4884,US_grid_step_1.6_nonwarm
US,49611,MI,44.9737,-84.9745,US_grid_step_1.6_nonwarm
US,49613,MI,44.5232,-86.2061,US_north_extra_step_0.9_lat40plus
US,49621,MI,44.8605,-85.8138,US_far_north_extra_step_0.7_lat44plus
US,49632,MI,44.2529,-85.017,US_far_north_extra_step_0.7_lat44plus
US,49644,MI,44.0966,-85.939,US_far_north_extra_step_0.7_lat44plus
US,49654,MI,45.0793,-85.9896,US_north_extra_step_0.9_lat40plus
US,49705,MI,45.3637,-84.4695,US_grid_step_1.6_nonwarm
US,49706,MI,45.4405,-84.7924,US_north_extra_step_0.9_lat40plus
US,49707,MI,45.079,-83.4602,US_north_extra_step_0.9_lat40plus
US,49710,MI,46.2848,-84.2173,US_north_extra_step_0.9_lat40plus
US,49715,MI,46.3891,-84.6981,US_north_extra_step_0.9_lat40plus
US,49716,MI,45.5068,-84.7467,US_far_north_extra_step_0.7_lat44plus
US,49719,MI,46.0024,-84.3488,US_far_north_extra_step_0.7_lat44plus
US,49725,MI,45.9939,-83.9396,US_far_north_extra_step_0.7_lat44plus
US,49728,MI,46.4088,-85.0136,US_grid_step_1.6_nonwarm
US,49783,MI,46.4151,-84.2854,US_grid_step_1.6_nonwarm
US,49806,MI,46.4446,-86.9115,US_grid_step_1.6_nonwarm
US,49808,MI,46.8158,-87.7285,US_north_extra_step_0.9_lat40plus
US,49812,MI,45.5917,-87.5439,US_far_north_extra_step_0.7_lat44plus
US,49819,MI,46.0508,-87.4921,US_north_extra_step_0.9_lat40plus
US,49820,MI,46.2048,-85.7865,US_north_extra_step_0.9_lat40plus
US,49838,MI,46.0747,-85.7338,US_far_north_extra_step_0.7_lat44plus
US,49862,MI,46.3994,-86.6983,US_far_north_extra_step_0.7_lat44plus
US,49901,MI,47.2933,-88.3897,US_grid_step_1.6_nonwarm
US,49902,MI,46.0438,-88.3771,US_grid_step_1.6_nonwarm
US,49903,MI,46.2321,-88.4508,US_far_north_extra_step_0.7_lat44plus
US,49910,MI,46.5881,-89.5973,US_north_extra_step_0.9_lat40plus
US,49911,MI,46.4802,-90.0515,US_far_north_extra_step_0.7_lat44plus
US,49918,MI,47.4688,-87.8884,US_far_north_extra_step_0.7_lat44plus
US,49953,MI,46.8275,-89.3485,US_north_extra_step_0.9_lat40plus
US,55001,MN,44.8697,-92.8234,US_grid_step_1.6_nonwarm
US,55002,MN,45.5134,-92.8942,US_north_extra_step_0.9_lat40plus
US,55060,MN,44.0805,-93.2191,US_far_north_extra_step_0.7_lat44plus
US,55301,MN,45.2534,-93.6469,US_north_extra_step_0.9_lat40plus
US,55302,MN,45.2483,-94.1061,US_far_north_extra_step_0.7_lat44plus
US,55307,MN,44.6153,-94.0762,US_north_extra_step_0.9_lat40plus
US,55310,MN,44.7507,-94.8716,US_far_north_extra_step_0.7_lat44plus
US,55601,MN,47.256,-91.3566,US_north_extra_step_0.9_lat40plus
US,55604,MN,47.7758,-90.3391,US_north_extra_step_0.9_lat40plus
US,55605,MN,47.9591,-89.6989,US_north_extra_step_0.9_lat40plus
US,55607,MN,47.6604,-91.4989,US_far_north_extra_step_0.7_lat44plus
US,55613,MN,47.5422,-90.9338,US_far_north_extra_step_0.7_lat44plus
US,55702,MN,46.9782,-92.5579,US_grid_step_1.6_nonwarm
US,55703,MN,47.7577,-92.6413,US_north_extra_step_0.9_lat40plus
US,55704,MN,46.1964,-92.7528,US_north_extra_step_0.9_lat40plus
US,55705,MN,47.4951,-92.2415,US_far_north_extra_step_0.7_lat44plus
US,55706,MN,47.7091,-91.957,US_far_north_extra_step_0.7_lat44plus
US,55707,MN,46.5196,-92.6292,US_north_extra_step_0.9_lat40plus
US,55709,MN,47.2868,-93.3723,US_north_extra_step_0.9_lat40plus
US,55723,MN,47.8442,-92.721,US_north_extra_step_0.9_lat40plus
US,55725,MN,48.2594,-92.4896,US_grid_step_1.6_nonwarm
US,55801,MN,46.7833,-92.1066,US_far_north_extra_step_0.7_lat44plus
US,55909,MN,43.5591,-92.7305,US_grid_step_1.6_nonwarm
US,55920,MN,44.0373,-92.6308,US_north_extra_step_0.9_lat40plus
US,55929,MN,44.0015,-92.1415,US_far_north_extra_step_0.7_lat44plus
US,56007,MN,43.6537,-93.3707,US_grid_step_1.6_nonwarm
US,56010,MN,43.8903,-94.1774,US_north_extra_step_0.9_lat40plus
US,56011,MN,44.6139,-93.7604,US_far_north_extra_step_0.7_lat44plus
US,56022,MN,44.0513,-94.838,US_far_north_extra_step_0.7_lat44plus
US,56034,MN,44.0467,-94.1791,US_far_north_extra_step_0.7_lat44plus
US,56110,MN,43.6197,-95.9273,US_grid_step_1.6_nonwarm
US,56111,MN,43.5946,-94.9051,US_north_extra_step_0.9_lat40plus
US,56113,MN,44.4091,-96.1999,US_north_extra_step_0.9_lat40plus
US,56115,MN,44.2253,-95.8838,US_far_north_extra_step_0.7_lat44plus
US,56123,MN,44.0946,-95.6953,US_far_north_extra_step_0.7_lat44plus
US,56139,MN,44.0759,-96.1903,US_far_north_extra_step_0.7_lat44plus
US,56207,MN,45.5571,-96.0498,US_grid_step_1.6_nonwarm
US,56208,MN,45.2054,-95.9949,US_far_north_extra_step_0.7_lat44plus
US,56209,MN,45.1116,-94.7938,US_far_north_extra_step_0.7_lat44plus
US,56210,MN,45.5593,-96.5589,US_north_extra_step_0.9_lat40plus
US,56211,MN,45.5539,-96.706,US_far_north_extra_step_0.7_lat44plus
US,56214,MN,44.6055,-95.3178,US_north_extra_step_0.9_lat40plus
US,56215,MN,45.3129,-95.5766,US_far_north_extra_step_0.7_lat44plus
US,56307,MN,45.6151,-94.574,US_grid_step_1.6_nonwarm
US,56308,MN,45.8817,-95.382,US_far_north_extra_step_0.7_lat44plus
US,56309,MN,46.0781,-95.8214,US_north_extra_step_0.9_lat40plus
US,56310,MN,45.6122,-94.436,US_far_north_extra_step_0.7_lat44plus
US,56313,MN,45.7845,-93.5522,US_far_north_extra_step_0.7_lat44plus
US,56430,MN,47.0741,-94.5628,US_grid_step_1.6_nonwarm
US,56431,MN,46.4799,-93.6454,US_grid_step_1.6_nonwarm
US,56434,MN,46.3797,-94.9364,US_north_extra_step_0.9_lat40plus
US,56435,MN,46.8699,-94.3959,US_north_extra_step_0.9_lat40plus
US,56510,MN,47.3253,-96.5973,US_north_extra_step_0.9_lat40plus
US,56511,MN,46.8719,-95.9881,US_north_extra_step_0.9_lat40plus
US,56515,MN,46.3142,-95.7144,US_far_north_extra_step_0.7_lat44plus
US,56621,MN,47.487,-95.4133,US_far_north_extra_step_0.7_lat44plus
US,56623,MN,48.6927,-94.5995,US_far_north_extra_step_0.7_lat44plus
US,56626,MN,47.3477,-94.2519,US_far_north_extra_step_0.7_lat44plus
US,56627,MN,48.156,-93.7296,US_grid_step_1.6_nonwarm
US,56629,MN,48.6247,-94.1677,US_north_extra_step_0.9_lat40plus
US,56630,MN,47.7381,-94.4961,US_far_north_extra_step_0.7_lat44plus
US,56634,MN,47.7146,-95.3752,US_north_extra_step_0.9_lat40plus
US,56647,MN,47.7324,-94.6477,US_far_north_extra_step_0.7_lat44plus
US,56649,MN,48.601,-93.411,US_north_extra_step_0.9_lat40plus
US,56710,MN,48.202,-96.9915,US_grid_step_1.6_nonwarm
US,56711,MN,49.3453,-95.0627,US_grid_step_1.6_nonwarm
US,56713,MN,48.3314,-96.8671,US_far_north_extra_step_0.7_lat44plus
US,56714,MN,48.7913,-96.0965,US_north_extra_step_0.9_lat40plus
US,56715,MN,47.8129,-96.0117,US_north_extra_step_0.9_lat40plus
US,56724,MN,48.4104,-95.7903,US_far_north_extra_step_0.7_lat44plus
US,56728,MN,48.7749,-96.9445,US_north_extra_step_0.9_lat40plus
US,63430,MO,40.3445,-91.5154,US_north_extra_step_0.9_lat40plus
US,63431,MO,39.7428,-92.328,US_grid_step_1.6_nonwarm
US,63432,MO,40.4863,-92.0047,US_north_extra_step_0.9_lat40plus
US,63530,MO,39.9146,-92.475,US_midlat_extra_step_1.1_lat35_40
US,63620,MO,37.3981,-90.6702,US_midlat_extra_step_1.1_lat35_40
US,63621,MO,37.4871,-90.6062,US_midlat_extra_step_1.1_lat35_40
US,63730,MO,37.0922,-89.9106,US_grid_step_1.6_nonwarm
US,64001,MO,39.1048,-93.5429,US_midlat_extra_step_1.1_lat35_40
US,64401,MO,39.6662,-94.717,US_grid_step_1.6_nonwarm
US,64402,MO,40.2513,-94.327,US_north_extra_step_0.9_lat40plus
US,64423,MO,40.1862,-94.8056,US_north_extra_step_0.9_lat40plus
US,64620,MO,39.896,-94.0897,US_midlat_extra_step_1.1_lat35_40
US,64630,MO,40.029,-93.1607,US_north_extra_step_0.9_lat40plus
US,64720,MO,38.4125,-94.3683,US_grid_step_1.6_nonwarm
US,64830,MO,37.2367,-94.418,US_grid_step_1.6_nonwarm
US,65001,MO,38.2986,-92.0155,US_grid_step_1.6_nonwarm
US,65010,MO,38.7878,-92.2537,US_midlat_extra_step_1.1_lat35_40
US,65011,MO,38.3967,-92.6686,US_midlat_extra_step_1.1_lat35_40
US,65230,MO,39.2566,-92.709,US_midlat_extra_step_1.1_lat35_40
US,65601,MO,37.5057,-93.5576,US_grid_step_1.6_nonwarm
US,65608,MO,36.9407,-92.6765,US_midlat_extra_step_1.1_lat35_40
US,65609,MO,36.5332,-92.1507,US_midlat_extra_step_1.1_lat35_40
US,38601,MS,34.4719,-89.4475,US_warm_coarse_step_2.5
US,38720,MS,34.1294,-90.7382,US_warm_coarse_step_2.5
US,39201,MS,32.2935,-90.1867,US_warm_major_cities
US,39301,MS,32.3574,-88.656,US_warm_major_cities
US,39530,MS,30.4035,-88.8971,US_warm_major_cities
US,39669,MS,31.1459,-91.3076,US_state_min_fill_MS
US,39701,MS,33.4109,-88.5047,US_warm_major_cities
US,59003,MT,45.5827,-106.2797,US_state_cap_pool_MT
US,59008,MT,45.0498,-109.0788,US_state_cap_pool_MT
US,59020,MT,45.0234,-109.907,US_state_cap_pool_MT
US,59030,MT,45.0849,-110.5715,US_state_cap_pool_MT
US,59034,MT,45.7498,-107.6075,US_state_cap_pool_MT
US,59036,MT,46.4477,-109.8435,US_state_cap_pool_MT
US,59039,MT,46.5767,-107.3723,US_state_cap_pool_MT
US,59041,MT,45.4941,-108.9922,US_state_cap_pool_MT
US,59062,MT,45.0903,-106.1499,US_state_cap_pool_MT
US,59069,MT,45.7439,-109.5224,US_state_cap_pool_MT
US,59073,MT,46.4452,-108.5418,US_state_cap_pool_MT
US,59082,MT,45.7383,-110.2271,US_state_cap_pool_MT
US,59087,MT,46.9438,-108.3184,US_state_cap_pool_MT
US,59089,MT,45.1089,-107.4303,US_state_cap_pool_MT
US,59101,MT,45.7745,-108.5005,US_state_cap_city_MT
US,59214,MT,47.2485,-105.7776,US_state_cap_pool_MT
US,59223,MT,48.0089,-106.4486,US_state_cap_pool_MT
US,59226,MT,48.3345,-104.4961,US_state_cap_pool_MT
US,59241,MT,48.4007,-107.0098,US_state_cap_pool_MT
US,59255,MT,48.1307,-105.187,US_state_cap_pool_MT
US,59259,MT,47.6229,-105.017,US_state_cap_pool_MT
US,59260,MT,48.6507,-106.1192,US_state_cap_pool_MT
US,59270,MT,47.713,-104.1634,US_state_cap_pool_MT
US,59275,MT,48.8587,-104.1247,US_state_cap_pool_MT
US,59276,MT,48.8956,-105.1617,US_state_cap_pool_MT
US,59301,MT,46.4075,-105.8332,US_state_cap_pool_MT
US,59314,MT,45.0994,-105.3383,US_state_cap_pool_MT
US,59318,MT,47.4253,-107.2668,US_state_cap_pool_MT
US,59319,MT,45.4361,-104.0655,US_state_cap_pool_MT
US,59322,MT,47.1263,-106.4981,US_state_cap_pool_MT
US,59324,MT,45.8805,-104.504,US_state_cap_pool_MT
US,59327,MT,46.2819,-106.6991,US_state_cap_pool_MT
US,59330,MT,47.1008,-104.7287,US_state_cap_pool_MT
US,59344,MT,46.4112,-104.5713,US_state_cap_pool_MT
US,59345,MT,45.7589,-105.1153,US_state_cap_pool_MT
US,59349,MT,46.829,-105.3706,US_state_cap_pool_MT
US,59401,MT,47.5098,-111.2734,US_state_cap_city_MT
US,59410,MT,47.4537,-112.3883,US_state_cap_pool_MT
US,59411,MT,48.8788,-113.3681,US_state_cap_pool_MT
US,59424,MT,47.3467,-110.0908,US_state_cap_pool_MT
US,59433,MT,47.8601,-111.69,US_state_cap_pool_MT
US,59435,MT,48.5578,-112.1206,US_state_cap_pool_MT
US,59457,MT,47.0563,-109.4203,US_state_cap_pool_MT
US,59460,MT,47.9546,-110.4995,US_state_cap_pool_MT
US,59461,MT,48.4717,-111.2322,US_state_cap_pool_MT
US,59463,MT,47.0722,-110.871,US_state_cap_pool_MT
US,59467,MT,48.0879,-112.3261,US_state_cap_pool_MT
US,59471,MT,47.3678,-108.8634,US_state_cap_pool_MT
US,59484,MT,48.9961,-111.9606,US_state_cap_pool_MT
US,59524,MT,48.395,-108.2465,US_state_cap_pool_MT
US,59532,MT,48.56,-110.0513,US_state_cap_pool_MT
US,59535,MT,47.9647,-109.2671,US_state_cap_pool_MT
US,59537,MT,48.7983,-107.8686,US_state_cap_pool_MT
US,59545,MT,48.911,-111.1075,US_state_cap_pool_MT
US,59546,MT,47.7698,-108.592,US_state_cap_pool_MT
US,59547,MT,48.5844,-109.0304,US_state_cap_pool_MT
US,59601,MT,46.6131,-112.0213,US_state_cap_city_MT
US,59645,MT,46.6332,-111.0506,US_state_cap_pool_MT
US,59701,MT,45.9979,-112.5988,US_state_cap_city_MT
US,59715,MT,45.6693,-111.0431,US_state_cap_city_MT
US,59721,MT,45.8941,-111.7809,US_state_cap_pool_MT
US,59725,MT,45.2339,-112.6405,US_state_cap_pool_MT
US,59736,MT,45.3687,-113.3598,US_state_cap_pool_MT
US,59739,MT,44.6441,-112.5625,US_state_cap_pool_MT
US,59755,MT,45.2938,-111.9461,US_state_cap_pool_MT
US,59758,MT,44.6621,-111.1041,US_state_cap_pool_MT
US,59801,MT,46.8563,-114.0252,US_state_cap_city_MT
US,59827,MT,45.919,-114.059,US_state_cap_pool_MT
US,59843,MT,46.83,-112.9413,US_state_cap_pool_MT
US,59855,MT,47.6002,-114.119,US_state_cap_pool_MT
US,59858,MT,46.3189,-113.3126,US_state_cap_pool_MT
US,59868,MT,47.1789,-113.481,US_state_cap_pool_MT
US,59872,MT,47.1721,-114.8885,US_state_cap_pool_MT
US,59873,MT,47.6016,-115.3602,US_state_cap_pool_MT
US,59875,MT,46.4005,-114.1665,US_state_cap_pool_MT
US,59916,MT,48.278,-113.6126,US_state_cap_pool_MT
US,59925,MT,48.0836,-114.7446,US_state_cap_pool_MT
US,59928,MT,48.8206,-114.3836,US_state_cap_pool_MT
US,59930,MT,48.9179,-115.2129,US_state_cap_pool_MT
US,59935,MT,48.4791,-115.8817,US_state_cap_pool_MT
US,27006,NC,36.0065,-80.4463,US_grid_step_1.6_nonwarm
US,27201,NC,36.0318,-79.4856,US_grid_step_1.6_nonwarm
US,27501,NC,35.4897,-78.7249,US_midlat_extra_step_1.1_lat35_40
US,27805,NC,36.1475,-77.1141,US_midlat_extra_step_1.1_lat35_40
US,27806,NC,35.3023,-76.7994,US_grid_step_1.6_nonwarm
US,27910,NC,36.2957,-76.9966,US_grid_step_1.6_nonwarm
US,27915,NC,35.3521,-75.5104,US_midlat_extra_step_1.1_lat35_40
US,27927,NC,36.3206,-75.8132,US_midlat_extra_step_1.1_lat35_40
US,27960,NC,35.1397,-75.8931,US_midlat_extra_step_1.1_lat35_40
US,28007,NC,35.1046,-80.1092,US_grid_step_1.6_nonwarm
US,28038,NC,35.197,-81.5386,US_midlat_extra_step_1.1_lat35_40
US,28207,NC,35.1935,-80.8272,US_midlat_extra_step_1.1_lat35_40
US,28315,NC,35.1216,-79.445,US_grid_step_1.6_nonwarm
US,28318,NC,35.0997,-78.6021,US_midlat_extra_step_1.1_lat35_40
US,28508,NC,35.1176,-77.8515,US_grid_step_1.6_nonwarm
US,28509,NC,35.1449,-76.8022,US_midlat_extra_step_1.1_lat35_40
US,28511,NC,34.8888,-76.3521,US_grid_step_1.6_nonwarm
US,28717,NC,35.0971,-83.0871,US_grid_step_1.6_nonwarm
US,28805,NC,35.6004,-82.4918,US_midlat_extra_step_1.1_lat35_40
US,28901,NC,35.1959,-83.8228,US_grid_step_1.6_nonwarm
US,58001,ND,46.4479,-96.7278,US_grid_step_1.6_nonwarm
US,58002,ND,46.9763,-97.4069,US_north_extra_step_0.9_lat40plus
US,58004,ND,47.0194,-97.2048,US_far_north_extra_step_0.7_lat44plus
US,58013,ND,46.1326,-97.4059,US_north_extra_step_0.9_lat40plus
US,58027,ND,46.6079,-97.6106,US_far_north_extra_step_0.7_lat44plus
US,58210,ND,48.4223,-98.0867,US_grid_step_1.6_nonwarm
US,58212,ND,47.6993,-97.9814,US_grid_step_1.6_nonwarm
US,58216,ND,48.8686,-97.4832,US_north_extra_step_0.9_lat40plus
US,58310,ND,48.6228,-99.4932,US_grid_step_1.6_nonwarm
US,58311,ND,48.6525,-98.5795,US_north_extra_step_0.9_lat40plus
US,58313,ND,48.1667,-100.0371,US_far_north_extra_step_0.7_lat44plus
US,58317,ND,48.6258,-99.3779,US_far_north_extra_step_0.7_lat44plus
US,58318,ND,48.8451,-100.4329,US_north_extra_step_0.9_lat40plus
US,58321,ND,48.2255,-98.3559,US_north_extra_step_0.9_lat40plus
US,58324,ND,48.4867,-99.2099,US_north_extra_step_0.9_lat40plus
US,58325,ND,48.2862,-99.1412,US_far_north_extra_step_0.7_lat44plus
US,58413,ND,46.0537,-99.3164,US_north_extra_step_0.9_lat40plus
US,58415,ND,46.3786,-98.4898,US_north_extra_step_0.9_lat40plus
US,58416,ND,47.5739,-98.3546,US_north_extra_step_0.9_lat40plus
US,58418,ND,47.4343,-99.7015,US_north_extra_step_0.9_lat40plus
US,58420,ND,47.0051,-98.9007,US_far_north_extra_step_0.7_lat44plus
US,58424,ND,46.8931,-99.1288,US_far_north_extra_step_0.7_lat44plus
US,58428,ND,46.8686,-99.7515,US_far_north_extra_step_0.7_lat44plus
US,58501,ND,46.8083,-100.7837,US_far_north_extra_step_0.7_lat44plus
US,58504,ND,46.7231,-100.678,US_north_extra_step_0.9_lat40plus
US,58520,ND,46.7046,-101.5221,US_grid_step_1.6_nonwarm
US,58521,ND,46.9543,-100.7615,US_north_extra_step_0.9_lat40plus
US,58523,ND,47.2707,-101.8075,US_north_extra_step_0.9_lat40plus
US,58530,ND,47.1459,-101.1594,US_north_extra_step_0.9_lat40plus
US,58533,ND,46.3679,-101.7558,US_north_extra_step_0.9_lat40plus
US,58535,ND,46.5998,-101.3166,US_far_north_extra_step_0.7_lat44plus
US,58538,ND,46.0905,-100.6516,US_far_north_extra_step_0.7_lat44plus
US,58542,ND,46.0589,-99.9745,US_far_north_extra_step_0.7_lat44plus
US,58601,ND,46.8057,-102.7565,US_far_north_extra_step_0.7_lat44plus
US,58620,ND,46.456,-103.2647,US_north_extra_step_0.9_lat40plus
US,58621,ND,46.9324,-103.9843,US_north_extra_step_0.9_lat40plus
US,58622,ND,46.8198,-103.1261,US_north_extra_step_0.9_lat40plus
US,58623,ND,46.1733,-103.402,US_far_north_extra_step_0.7_lat44plus
US,58626,ND,47.3536,-102.6205,US_far_north_extra_step_0.7_lat44plus
US,58627,ND,47.2329,-103.3056,US_far_north_extra_step_0.7_lat44plus
US,58651,ND,46.1664,-103.7079,US_far_north_extra_step_0.7_lat44plus
US,58710,ND,47.8703,-100.2529,US_grid_step_1.6_nonwarm
US,58711,ND,48.9585,-101.3338,US_grid_step_1.6_nonwarm
US,58713,ND,48.5351,-100.5954,US_far_north_extra_step_0.7_lat44plus
US,58716,ND,47.7865,-101.0579,US_north_extra_step_0.9_lat40plus
US,58718,ND,48.3064,-101.6866,US_far_north_extra_step_0.7_lat44plus
US,58721,ND,48.8378,-102.2839,US_north_extra_step_0.9_lat40plus
US,58725,ND,48.4323,-101.7119,US_north_extra_step_0.9_lat40plus
US,58733,ND,48.2557,-101.5672,US_far_north_extra_step_0.7_lat44plus
US,58830,ND,48.5817,-103.4699,US_grid_step_1.6_nonwarm
US,58831,ND,47.7947,-103.6546,US_grid_step_1.6_nonwarm
US,58833,ND,48.8165,-103.4673,US_north_extra_step_0.9_lat40plus
US,58835,ND,47.8088,-103.4538,US_far_north_extra_step_0.7_lat44plus
US,58847,ND,47.9405,-102.8906,US_far_north_extra_step_0.7_lat44plus
US,68001,NE,41.3479,-96.9563,US_grid_step_1.6_nonwarm
US,68301,NE,40.4576,-96.5396,US_north_extra_step_0.9_lat40plus
US,68303,NE,40.2614,-97.4039,US_north_extra_step_0.9_lat40plus
US,68305,NE,40.3789,-95.8526,US_north_extra_step_0.9_lat40plus
US,68307,NE,40.8159,-96.0957,US_north_extra_step_0.9_lat40plus
US,68620,NE,41.7049,-97.9991,US_grid_step_1.6_nonwarm
US,68621,NE,41.4613,-96.6463,US_north_extra_step_0.9_lat40plus
US,68622,NE,41.8697,-98.5567,US_north_extra_step_0.9_lat40plus
US,68711,NE,42.1809,-99.008,US_north_extra_step_0.9_lat40plus
US,68713,NE,42.5483,-98.9761,US_north_extra_step_0.9_lat40plus
US,68810,NE,40.8711,-98.4681,US_grid_step_1.6_nonwarm
US,68812,NE,40.8495,-99.2609,US_north_extra_step_0.9_lat40plus
US,68818,NE,40.8528,-98.0201,US_north_extra_step_0.9_lat40plus
US,68920,NE,40.1189,-99.3601,US_grid_step_1.6_nonwarm
US,68925,NE,40.4411,-98.439,US_north_extra_step_0.9_lat40plus
US,69020,NE,40.2581,-100.2908,US_north_extra_step_0.9_lat40plus
US,69021,NE,40.098,-101.5344,US_north_extra_step_0.9_lat40plus
US,69023,NE,40.46,-101.7485,US_north_extra_step_0.9_lat40plus
US,69032,NE,40.5173,-101.0252,US_north_extra_step_0.9_lat40plus
US,69120,NE,41.4456,-100.1567,US_north_extra_step_0.9_lat40plus
US,69121,NE,41.574,-101.6931,US_north_extra_step_0.9_lat40plus
US,69123,NE,41.0515,-100.3736,US_north_extra_step_0.9_lat40plus
US,69210,NE,42.5403,-99.8615,US_grid_step_1.6_nonwarm
US,69211,NE,42.825,-101.2913,US_north_extra_step_0.9_lat40plus
US,69212,NE,42.9255,-100.7735,US_north_extra_step_0.9_lat40plus
US,69301,NE,42.1149,-102.888,US_grid_step_1.6_nonwarm
US,69333,NE,41.9776,-101.9636,US_grid_step_1.6_nonwarm
US,69337,NE,42.8193,-102.9953,US_north_extra_step_0.9_lat40plus
US,69346,NE,42.6872,-103.8827,US_north_extra_step_0.9_lat40plus
US,03040,NH,43.0481,-71.2487,US_state_min_fill_NH
US,03062,NH,42.7235,-71.4893,US_state_min_fill_NH
US,03223,NH,43.8418,-71.6652,US_state_min_fill_NH
US,03229,NH,43.1978,-71.6968,US_state_min_fill_NH
US,03240,NH,43.5727,-71.9634,US_state_min_fill_NH
US,03447,NH,42.7611,-72.145,US_state_min_fill_NH
US,03579,NH,44.8003,-71.1436,US_far_north_extra_step_0.7_lat44plus
US,03584,NH,44.4921,-71.5591,US_state_min_fill_NH
US,03592,NH,45.0866,-71.3636,US_state_min_fill_NH
US,03601,NH,43.196,-72.3001,US_north_extra_step_0.9_lat40plus
US,03765,NH,44.0394,-72.0573,US_far_north_extra_step_0.7_lat44plus
US,03809,NH,43.463,-71.2297,US_north_extra_step_0.9_lat40plus
US,03812,NH,44.0802,-71.292,US_far_north_extra_step_0.7_lat44plus
US,03871,NH,42.9806,-70.7719,US_state_min_fill_NH
US,07305,NJ,40.702,-74.089,US_state_min_fill_NJ
US,07401,NJ,41.0327,-74.1342,US_north_extra_step_0.9_lat40plus
US,07710,NJ,40.2182,-74.2563,US_north_extra_step_0.9_lat40plus
US,07820,NJ,40.9218,-74.8102,US_state_min_fill_NJ
US,07851,NJ,41.2299,-74.8466,US_state_min_fill_NJ
US,07946,NJ,40.6727,-74.5183,US_state_min_fill_NJ
US,08001,NJ,39.5591,-75.3506,US_midlat_extra_step_1.1_lat35_40
US,08004,NJ,39.76,-74.8665,US_midlat_extra_step_1.1_lat35_40
US,08005,NJ,39.7552,-74.247,US_midlat_extra_step_1.1_lat35_40
US,08201,NJ,39.4218,-74.4949,US_grid_step_1.6_nonwarm
US,08212,NJ,38.9372,-74.9654,US_state_min_fill_NJ
US,08348,NJ,39.3131,-74.9807,US_state_min_fill_NJ
US,08560,NJ,40.3077,-74.8655,US_state_min_fill_NJ
US,08865,NJ,40.7079,-75.1507,US_state_min_fill_NJ
US,87005,NM,35.255,-107.9856,US_midlat_extra_step_1.1_lat35_40
US,87018,NM,36.2092,-107.4578,US_midlat_extra_step_1.1_lat35_40
US,87020,NM,35.1476,-107.8526,US_midlat_extra_step_1.1_lat35_40
US,87101,NM,35.1996,-106.6448,US_grid_step_1.6_nonwarm
US,87120,NM,35.1421,-106.7041,US_midlat_extra_step_1.1_lat35_40
US,87410,NM,36.8205,-108.011,US_midlat_extra_step_1.1_lat35_40
US,87412,NM,36.7242,-107.8253,US_grid_step_1.6_nonwarm
US,87510,NM,36.1769,-106.2449,US_grid_step_1.6_nonwarm
US,87710,NM,36.3849,-105.2439,US_grid_step_1.6_nonwarm
US,87711,NM,35.2001,-105.1422,US_midlat_extra_step_1.1_lat35_40
US,87724,NM,35.1734,-105.0775,US_midlat_extra_step_1.1_lat35_40
US,87820,NM,33.8859,-108.5466,US_grid_step_1.6_nonwarm
US,88008,NM,31.8394,-106.6821,US_grid_step_1.6_nonwarm
US,88022,NM,32.7839,-108.1854,US_grid_step_1.6_nonwarm
US,88029,NM,31.8276,-107.64,US_grid_step_1.6_nonwarm
US,88210,NM,32.8384,-104.4074,US_grid_step_1.6_nonwarm
US,88213,NM,33.3939,-103.639,US_grid_step_1.6_nonwarm
US,88310,NM,32.8932,-105.9485,US_grid_step_1.6_nonwarm
US,88318,NM,34.1693,-105.5339,US_grid_step_1.6_nonwarm
US,88410,NM,35.8983,-103.213,US_grid_step_1.6_nonwarm
US,88411,NM,35.1303,-103.1605,US_grid_step_1.6_nonwarm
US,88426,NM,35.3681,-103.4383,US_midlat_extra_step_1.1_lat35_40
US,88431,NM,35.0847,-104.2433,US_midlat_extra_step_1.1_lat35_40
US,89001,NV,37.3259,-115.308,US_grid_step_1.6_nonwarm
US,89003,NV,36.8199,-116.6094,US_midlat_extra_step_1.1_lat35_40
US,89004,NV,36.0464,-115.4039,US_midlat_extra_step_1.1_lat35_40
US,89005,NV,35.9727,-114.8344,US_grid_step_1.6_nonwarm
US,89007,NV,36.7684,-114.1281,US_midlat_extra_step_1.1_lat35_40
US,89008,NV,37.6128,-114.5097,US_midlat_extra_step_1.1_lat35_40
US,89013,NV,37.7085,-117.2356,US_midlat_extra_step_1.1_lat35_40
US,89020,NV,36.539,-116.5496,US_grid_step_1.6_nonwarm
US,89301,NV,39.2474,-114.8886,US_midlat_extra_step_1.1_lat35_40
US,89310,NV,39.508,-117.0811,US_midlat_extra_step_1.1_lat35_40
US,89311,NV,38.9559,-114.2438,US_grid_step_1.6_nonwarm
US,89314,NV,38.9324,-115.7145,US_grid_step_1.6_nonwarm
US,89404,NV,41.9899,-118.6343,US_north_extra_step_0.9_lat40plus
US,89405,NV,40.6132,-119.3485,US_grid_step_1.6_nonwarm
US,89406,NV,39.4703,-118.7861,US_midlat_extra_step_1.1_lat35_40
US,89408,NV,39.6019,-119.235,US_midlat_extra_step_1.1_lat35_40
US,89409,NV,38.8688,-117.9221,US_grid_step_1.6_nonwarm
US,89414,NV,40.9532,-117.4893,US_north_extra_step_0.9_lat40plus
US,89418,NV,40.5484,-118.0344,US_north_extra_step_0.9_lat40plus
US,89419,NV,40.1819,-118.4689,US_north_extra_step_0.9_lat40plus
US,89426,NV,41.5057,-117.5728,US_north_extra_step_0.9_lat40plus
US,89701,NV,39.1507,-119.7459,US_grid_step_1.6_nonwarm
US,89820,NV,40.622,-116.9554,US_grid_step_1.6_nonwarm
US,89821,NV,40.4138,-116.5813,US_north_extra_step_0.9_lat40plus
US,89822,NV,40.7172,-116.1082,US_grid_step_1.6_nonwarm
US,89823,NV,41.0655,-115.2748,US_north_extra_step_0.9_lat40plus
US,89825,NV,41.8882,-114.7233,US_north_extra_step_0.9_lat40plus
US,89826,NV,41.8873,-115.3813,US_north_extra_step_0.9_lat40plus
US,89830,NV,41.2613,-114.1942,US_grid_step_1.6_nonwarm
US,89833,NV,40.3995,-115.2312,US_north_extra_step_0.9_lat40plus
US,89835,NV,41.1116,-114.9645,US_north_extra_step_0.9_lat40plus
US,11507,NY,40.7703,-73.6514,US_north_extra_step_0.9_lat40plus
US,11930,NY,40.9895,-72.0959,US_grid_step_1.6_nonwarm
US,12404,NY,41.8083,-74.2353,US_grid_step_1.6_nonwarm
US,12405,NY,42.3304,-74.0857,US_north_extra_step_0.9_lat40plus
US,12501,NY,41.8447,-73.5542,US_north_extra_step_0.9_lat40plus
US,12808,NY,43.7165,-73.7825,US_grid_step_1.6_nonwarm
US,12810,NY,43.4839,-73.8817,US_north_extra_step_0.9_lat40plus
US,12910,NY,44.8816,-73.6408,US_grid_step_1.6_nonwarm
US,12912,NY,44.4499,-73.6857,US_far_north_extra_step_0.7_lat44plus
US,12913,NY,44.3985,-74.0829,US_north_extra_step_0.9_lat40plus
US,12914,NY,44.9479,-74.5947,US_far_north_extra_step_0.7_lat44plus
US,12919,NY,44.9773,-73.4466,US_far_north_extra_step_0.7_lat44plus
US,12922,NY,44.2867,-74.6759,US_far_north_extra_step_0.7_lat44plus
US,12956,NY,44.0876,-73.5236,US_far_north_extra_step_0.7_lat44plus
US,12974,NY,44.0465,-73.4705,US_far_north_extra_step_0.7_lat44plus
US,13020,NY,42.8187,-76.0724,US_north_extra_step_0.9_lat40plus
US,13301,NY,43.4157,-75.2137,US_north_extra_step_0.9_lat40plus
US,13605,NY,43.8062,-76.049,US_grid_step_1.6_nonwarm
US,13607,NY,44.3359,-75.9177,US_north_extra_step_0.9_lat40plus
US,13612,NY,44.0042,-75.7958,US_far_north_extra_step_0.7_lat44plus
US,13613,NY,44.8467,-74.7473,US_north_extra_step_0.9_lat40plus
US,13617,NY,44.5924,-75.1628,US_far_north_extra_step_0.7_lat44plus
US,13618,NY,44.1244,-76.3164,US_far_north_extra_step_0.7_lat44plus
US,13621,NY,44.8672,-75.073,US_far_north_extra_step_0.7_lat44plus
US,13665,NY,44.063,-75.5039,US_far_north_extra_step_0.7_lat44plus
US,13694,NY,44.8564,-75.2049,US_grid_step_1.6_nonwarm
US,13730,NY,42.2417,-75.5366,US_grid_step_1.6_nonwarm
US,13732,NY,42.0556,-76.1519,US_north_extra_step_0.9_lat40plus
US,13733,NY,42.312,-75.4894,US_north_extra_step_0.9_lat40plus
US,14001,NY,43.0249,-78.5084,US_grid_step_1.6_nonwarm
US,14008,NY,43.3105,-78.6372,US_grid_step_1.6_nonwarm
US,14410,NY,43.1953,-77.8559,US_grid_step_1.6_nonwarm
US,14411,NY,43.2398,-78.2068,US_grid_step_1.6_nonwarm
US,14413,NY,43.2227,-76.9821,US_north_extra_step_0.9_lat40plus
US,14706,NY,42.0918,-78.4999,US_north_extra_step_0.9_lat40plus
US,14710,NY,42.1084,-79.4056,US_north_extra_step_0.9_lat40plus
US,14716,NY,42.394,-79.4344,US_north_extra_step_0.9_lat40plus
US,14801,NY,42.0983,-77.266,US_north_extra_step_0.9_lat40plus
US,14802,NY,42.2534,-77.7893,US_north_extra_step_0.9_lat40plus
US,14805,NY,42.351,-76.7348,US_north_extra_step_0.9_lat40plus
US,43001,OH,40.106,-82.6077,US_north_extra_step_0.9_lat40plus
US,43002,OH,40.072,-83.1792,US_north_extra_step_0.9_lat40plus
US,43101,OH,39.4667,-82.7471,US_grid_step_1.6_nonwarm
US,43102,OH,39.6251,-82.7552,US_midlat_extra_step_1.1_lat35_40
US,43711,OH,39.8317,-81.5748,US_midlat_extra_step_1.1_lat35_40
US,43802,OH,40.0793,-81.8718,US_grid_step_1.6_nonwarm
US,43901,OH,40.2126,-80.8815,US_north_extra_step_0.9_lat40plus
US,44001,OH,41.3617,-82.2538,US_north_extra_step_0.9_lat40plus
US,44011,OH,41.4467,-82.0204,US_north_extra_step_0.9_lat40plus
US,44122,OH,41.4701,-81.5232,US_north_extra_step_0.9_lat40plus
US,44301,OH,41.0449,-81.52,US_north_extra_step_0.9_lat40plus
US,44802,OH,41.0463,-83.377,US_north_extra_step_0.9_lat40plus
US,45001,OH,39.1374,-84.7096,US_midlat_extra_step_1.1_lat35_40
US,45101,OH,38.6709,-83.7637,US_grid_step_1.6_nonwarm
US,45301,OH,39.7117,-84.0233,US_midlat_extra_step_1.1_lat35_40
US,45302,OH,40.4051,-84.2103,US_north_extra_step_0.9_lat40plus
US,45810,OH,40.7709,-83.8154,US_grid_step_1.6_nonwarm
US,73001,OK,35.2032,-98.3574,US_grid_step_1.6_nonwarm
US,73004,OK,35.1526,-97.8532,US_midlat_extra_step_1.1_lat35_40
US,73005,OK,35.0728,-98.2429,US_midlat_extra_step_1.1_lat35_40
US,73520,OK,34.2445,-97.967,US_grid_step_1.6_nonwarm
US,73521,OK,34.6484,-99.3205,US_grid_step_1.6_nonwarm
US,73651,OK,35.0255,-99.0944,US_midlat_extra_step_1.1_lat35_40
US,73716,OK,36.5056,-98.4574,US_midlat_extra_step_1.1_lat35_40
US,73832,OK,36.0522,-99.6514,US_grid_step_1.6_nonwarm
US,73901,OK,36.755,-101.078,US_grid_step_1.6_nonwarm
US,73933,OK,36.7283,-102.5355,US_midlat_extra_step_1.1_lat35_40
US,74001,OK,36.4901,-96.0616,US_midlat_extra_step_1.1_lat35_40
US,74330,OK,36.4115,-95.2732,US_grid_step_1.6_nonwarm
US,74421,OK,35.7896,-96.0264,US_midlat_extra_step_1.1_lat35_40
US,74422,OK,35.6577,-95.66,US_midlat_extra_step_1.1_lat35_40
US,74521,OK,34.6516,-95.0924,US_grid_step_1.6_nonwarm
US,74529,OK,35.0615,-95.5683,US_midlat_extra_step_1.1_lat35_40
US,74720,OK,33.8396,-96.3648,US_grid_step_1.6_nonwarm
US,74824,OK,35.909,-96.8738,US_grid_step_1.6_nonwarm
US,74830,OK,35.1462,-96.67,US_midlat_extra_step_1.1_lat35_40
US,97001,OR,44.8892,-120.7914,US_grid_step_1.6_nonwarm
US,97004,OR,45.2597,-122.4751,US_far_north_extra_step_0.7_lat44plus
US,97021,OR,45.3913,-121.1432,US_far_north_extra_step_0.7_lat44plus
US,97101,OR,45.1157,-123.1744,US_north_extra_step_0.9_lat40plus
US,97102,OR,45.8109,-123.963,US_grid_step_1.6_nonwarm
US,97103,OR,46.1558,-123.798,US_north_extra_step_0.9_lat40plus
US,97106,OR,45.6535,-123.121,US_far_north_extra_step_0.7_lat44plus
US,97108,OR,45.2767,-123.8234,US_far_north_extra_step_0.7_lat44plus
US,97321,OR,44.652,-123.1333,US_grid_step_1.6_nonwarm
US,97324,OR,44.3691,-123.6089,US_north_extra_step_0.9_lat40plus
US,97341,OR,44.8322,-124.0503,US_far_north_extra_step_0.7_lat44plus
US,97365,OR,44.6487,-124.0509,US_far_north_extra_step_0.7_lat44plus
US,97401,OR,44.0682,-123.0819,US_far_north_extra_step_0.7_lat44plus
US,97406,OR,42.5748,-124.0648,US_grid_step_1.6_nonwarm
US,97407,OR,43.4259,-124.0323,US_grid_step_1.6_nonwarm
US,97410,OR,42.845,-123.155,US_north_extra_step_0.9_lat40plus
US,97411,OR,43.0968,-124.4037,US_north_extra_step_0.9_lat40plus
US,97413,OR,44.1755,-122.1217,US_north_extra_step_0.9_lat40plus
US,97415,OR,42.0526,-124.284,US_north_extra_step_0.9_lat40plus
US,97424,OR,43.7839,-123.0529,US_north_extra_step_0.9_lat40plus
US,97437,OR,44.0873,-123.3671,US_far_north_extra_step_0.7_lat44plus
US,97459,OR,43.4327,-124.2131,US_north_extra_step_0.9_lat40plus
US,97520,OR,42.1885,-122.693,US_grid_step_1.6_nonwarm
US,97523,OR,42.1348,-123.6272,US_north_extra_step_0.9_lat40plus
US,97620,OR,42.1487,-119.8833,US_grid_step_1.6_nonwarm
US,97621,OR,42.4369,-121.22,US_grid_step_1.6_nonwarm
US,97623,OR,42.2463,-121.3336,US_north_extra_step_0.9_lat40plus
US,97625,OR,42.2351,-121.5211,US_north_extra_step_0.9_lat40plus
US,97636,OR,42.7031,-120.5532,US_north_extra_step_0.9_lat40plus
US,97701,OR,44.0928,-121.2936,US_north_extra_step_0.9_lat40plus
US,97707,OR,43.8431,-121.5764,US_north_extra_step_0.9_lat40plus
US,97711,OR,44.7195,-120.7192,US_grid_step_1.6_nonwarm
US,97712,OR,43.7789,-120.477,US_north_extra_step_0.9_lat40plus
US,97720,OR,43.5145,-119.0504,US_north_extra_step_0.9_lat40plus
US,97722,OR,42.9508,-118.695,US_north_extra_step_0.9_lat40plus
US,97730,OR,44.4604,-121.6412,US_far_north_extra_step_0.7_lat44plus
US,97731,OR,43.146,-121.7974,US_north_extra_step_0.9_lat40plus
US,97736,OR,42.7147,-119.0058,US_north_extra_step_0.9_lat40plus
US,97750,OR,44.5657,-120.1456,US_north_extra_step_0.9_lat40plus
US,97752,OR,44.0793,-120.2998,US_far_north_extra_step_0.7_lat44plus
US,97810,OR,45.7674,-118.5625,US_grid_step_1.6_nonwarm
US,97812,OR,45.6664,-120.1971,US_north_extra_step_0.9_lat40plus
US,97814,OR,44.7749,-117.8344,US_north_extra_step_0.9_lat40plus
US,97817,OR,44.7138,-118.6469,US_grid_step_1.6_nonwarm
US,97820,OR,44.3911,-118.9465,US_north_extra_step_0.9_lat40plus
US,97823,OR,45.2306,-120.1898,US_far_north_extra_step_0.7_lat44plus
US,97824,OR,45.3199,-117.8147,US_north_extra_step_0.9_lat40plus
US,97825,OR,44.4663,-119.5312,US_far_north_extra_step_0.7_lat44plus
US,97826,OR,45.7411,-119.1949,US_north_extra_step_0.9_lat40plus
US,97828,OR,45.437,-117.2888,US_far_north_extra_step_0.7_lat44plus
US,97836,OR,45.3486,-119.5369,US_far_north_extra_step_0.7_lat44plus
US,97842,OR,45.5137,-116.8257,US_north_extra_step_0.9_lat40plus
US,97868,OR,45.4227,-118.8483,US_far_north_extra_step_0.7_lat44plus
US,97901,OR,43.6537,-117.0602,US_grid_step_1.6_nonwarm
US,97902,OR,42.9156,-117.498,US_grid_step_1.6_nonwarm
US,97903,OR,44.1994,-117.5904,US_far_north_extra_step_0.7_lat44plus
US,97904,OR,43.8643,-118.4707,US_north_extra_step_0.9_lat40plus
US,15001,PA,40.5921,-80.3197,US_north_extra_step_0.9_lat40plus
US,15310,PA,39.8246,-80.4579,US_midlat_extra_step_1.1_lat35_40
US,15520,PA,40.1104,-79.0689,US_north_extra_step_0.9_lat40plus
US,15610,PA,40.1201,-79.4051,US_grid_step_1.6_nonwarm
US,16110,PA,41.5067,-80.3765,US_grid_step_1.6_nonwarm
US,16210,PA,40.9049,-79.5074,US_north_extra_step_0.9_lat40plus
US,16401,PA,41.8947,-80.3111,US_grid_step_1.6_nonwarm
US,16601,PA,40.5209,-78.4089,US_north_extra_step_0.9_lat40plus
US,16820,PA,40.8987,-77.4562,US_grid_step_1.6_nonwarm
US,17003,PA,40.3456,-76.5447,US_north_extra_step_0.9_lat40plus
US,17210,PA,40.1704,-77.6772,US_north_extra_step_0.9_lat40plus
US,17211,PA,39.7575,-78.4031,US_midlat_extra_step_1.1_lat35_40
US,17301,PA,39.8881,-76.9931,US_grid_step_1.6_nonwarm
US,17303,PA,39.9236,-77.3001,US_midlat_extra_step_1.1_lat35_40
US,17810,PA,41.1264,-76.9724,US_north_extra_step_0.9_lat40plus
US,18011,PA,40.5145,-75.6029,US_north_extra_step_0.9_lat40plus
US,18210,PA,40.9748,-75.5842,US_north_extra_step_0.9_lat40plus
US,19001,PA,40.1238,-75.1148,US_grid_step_1.6_nonwarm
US,19501,PA,40.2423,-76.0577,US_grid_step_1.6_nonwarm
US,02801,RI,41.5301,-71.2841,US_grid_step_1.6_nonwarm
US,02807,RI,41.1715,-71.5748,US_north_extra_step_0.9_lat40plus
US,02809,RI,41.6825,-71.2676,US_state_min_fill_RI
US,02816,RI,41.6914,-71.5768,US_state_min_fill_RI
US,02825,RI,41.7815,-71.7187,US_state_min_fill_RI
US,02829,RI,41.8793,-71.5894,US_state_min_fill_RI
US,02838,RI,41.9689,-71.4741,US_state_min_fill_RI
US,02852,RI,41.5894,-71.4625,US_state_min_fill_RI
US,02859,RI,41.9627,-71.7099,US_state_min_fill_RI
US,02873,RI,41.5199,-71.774,US_state_min_fill_RI
US,02879,RI,41.4437,-71.5342,US_state_min_fill_RI
US,02887,RI,41.7001,-71.4162,US_state_min_fill_RI
US,02891,RI,41.3691,-71.8126,US_state_min_fill_RI
US,02914,RI,41.8138,-71.3688,US_state_min_fill_RI
US,29201,SC,34.0004,-81.0334,US_warm_major_cities
US,29301,SC,34.9352,-81.9654,US_warm_major_cities
US,29401,SC,32.7795,-79.9371,US_warm_major_cities
US,29510,SC,33.4525,-79.5604,US_warm_coarse_step_2.5
US,29601,SC,34.8472,-82.406,US_warm_major_cities
US,29620,SC,34.1819,-82.3785,US_warm_coarse_step_2.5
US,29702,SC,35.1095,-81.4942,US_warm_coarse_step_2.5
US,57003,SD,43.7309,-96.7563,US_north_extra_step_0.9_lat40plus
US,57028,SD,44.0658,-96.6222,US_far_north_extra_step_0.7_lat44plus
US,57212,SD,44.3668,-97.0687,US_north_extra_step_0.9_lat40plus
US,57214,SD,44.4918,-97.2184,US_north_extra_step_0.9_lat40plus
US,57221,SD,44.5987,-97.4537,US_far_north_extra_step_0.7_lat44plus
US,57227,SD,45.3595,-96.6649,US_far_north_extra_step_0.7_lat44plus
US,57311,SD,43.6684,-97.7563,US_grid_step_1.6_nonwarm
US,57312,SD,44.1709,-98.3962,US_north_extra_step_0.9_lat40plus
US,57313,SD,43.316,-98.3414,US_north_extra_step_0.9_lat40plus
US,57314,SD,44.021,-98.0114,US_far_north_extra_step_0.7_lat44plus
US,57315,SD,43.0397,-98.0283,US_north_extra_step_0.9_lat40plus
US,57325,SD,43.7953,-99.3118,US_north_extra_step_0.9_lat40plus
US,57339,SD,44.0517,-99.3973,US_far_north_extra_step_0.7_lat44plus
US,57349,SD,44.0371,-97.5603,US_far_north_extra_step_0.7_lat44plus
US,57362,SD,44.4966,-98.9894,US_far_north_extra_step_0.7_lat44plus
US,57401,SD,45.4661,-98.4856,US_grid_step_1.6_nonwarm
US,57402,SD,45.5896,-98.352,US_far_north_extra_step_0.7_lat44plus
US,57420,SD,45.3324,-100.1186,US_north_extra_step_0.9_lat40plus
US,57421,SD,45.7585,-97.9274,US_north_extra_step_0.9_lat40plus
US,57422,SD,45.4222,-97.9175,US_far_north_extra_step_0.7_lat44plus
US,57428,SD,45.453,-99.654,US_north_extra_step_0.9_lat40plus
US,57435,SD,45.1691,-98.9411,US_far_north_extra_step_0.7_lat44plus
US,57520,SD,44.8393,-100.0712,US_grid_step_1.6_nonwarm
US,57521,SD,43.886,-101.2387,US_north_extra_step_0.9_lat40plus
US,57522,SD,44.5026,-99.9463,US_grid_step_1.6_nonwarm
US,57531,SD,43.926,-100.5085,US_north_extra_step_0.9_lat40plus
US,57532,SD,44.3426,-100.4043,US_far_north_extra_step_0.7_lat44plus
US,57536,SD,44.5215,-99.7382,US_north_extra_step_0.9_lat40plus
US,57548,SD,44.0937,-99.6139,US_far_north_extra_step_0.7_lat44plus
US,57552,SD,44.0717,-101.1554,US_far_north_extra_step_0.7_lat44plus
US,57567,SD,44.055,-101.6876,US_far_north_extra_step_0.7_lat44plus
US,57620,SD,45.5161,-102.4827,US_grid_step_1.6_nonwarm
US,57621,SD,45.7656,-101.0807,US_grid_step_1.6_nonwarm
US,57622,SD,44.6055,-101.4999,US_north_extra_step_0.9_lat40plus
US,57623,SD,45.0079,-101.6337,US_far_north_extra_step_0.7_lat44plus
US,57625,SD,45.0016,-101.2329,US_far_north_extra_step_0.7_lat44plus
US,57634,SD,45.7528,-101.8843,US_far_north_extra_step_0.7_lat44plus
US,57640,SD,45.8232,-102.7599,US_north_extra_step_0.9_lat40plus
US,57644,SD,45.3538,-102.2844,US_far_north_extra_step_0.7_lat44plus
US,57702,SD,44.0036,-103.3589,US_far_north_extra_step_0.7_lat44plus
US,57714,SD,43.2908,-101.9329,US_grid_step_1.6_nonwarm
US,57716,SD,43.1085,-102.2006,US_north_extra_step_0.9_lat40plus
US,57717,SD,44.6723,-103.8396,US_grid_step_1.6_nonwarm
US,57719,SD,44.1199,-103.0682,US_north_extra_step_0.9_lat40plus
US,57720,SD,45.574,-103.5826,US_north_extra_step_0.9_lat40plus
US,57725,SD,43.9481,-102.7935,US_north_extra_step_0.9_lat40plus
US,57735,SD,43.2874,-103.811,US_north_extra_step_0.9_lat40plus
US,57737,SD,44.5755,-102.5632,US_north_extra_step_0.9_lat40plus
US,57748,SD,44.5838,-102.0229,US_far_north_extra_step_0.7_lat44plus
US,57761,SD,44.0874,-102.8136,US_far_north_extra_step_0.7_lat44plus
US,57776,SD,45.2711,-103.5482,US_far_north_extra_step_0.7_lat44plus
US,37010,TN,36.5582,-87.1226,US_midlat_extra_step_1.1_lat35_40
US,37012,TN,36.0711,-86.0372,US_midlat_extra_step_1.1_lat35_40
US,37015,TN,36.2731,-87.0447,US_midlat_extra_step_1.1_lat35_40
US,37301,TN,35.4258,-85.7635,US_midlat_extra_step_1.1_lat35_40
US,37302,TN,35.0149,-85.0164,US_grid_step_1.6_nonwarm
US,37616,TN,36.2265,-82.7476,US_midlat_extra_step_1.1_lat35_40
US,37701,TN,35.7852,-83.9809,US_grid_step_1.6_nonwarm
US,38001,TN,35.8017,-89.1765,US_midlat_extra_step_1.1_lat35_40
US,38017,TN,35.0551,-89.6767,US_midlat_extra_step_1.1_lat35_40
US,38310,TN,35.2556,-88.4134,US_grid_step_1.6_nonwarm
US,38326,TN,35.0394,-88.2936,US_midlat_extra_step_1.1_lat35_40
US,38393,TN,34.9969,-88.6456,US_grid_step_1.6_nonwarm
US,38449,TN,35.0574,-86.8796,US_grid_step_1.6_nonwarm
US,38450,TN,35.1635,-87.7185,US_midlat_extra_step_1.1_lat35_40
US,73301,TX,30.3264,-97.7713,US_warm_major_cities
US,75201,TX,32.7904,-96.8044,US_warm_major_cities
US,75550,TX,33.5535,-94.8992,US_warm_coarse_step_2.5
US,76001,TX,32.6289,-97.1517,US_warm_major_cities
US,76101,TX,32.7714,-97.2915,US_warm_major_cities
US,76930,TX,31.1596,-101.1918,US_warm_coarse_step_2.5
US,77001,TX,29.8131,-95.3098,US_warm_major_cities
US,78201,TX,29.4711,-98.5356,US_warm_major_cities
US,78401,TX,27.7941,-97.403,US_warm_major_cities
US,78521,TX,25.9221,-97.4612,US_warm_coarse_step_2.5
US,78828,TX,29.8282,-100.105,US_warm_coarse_step_2.5
US,79101,TX,35.2032,-101.8421,US_warm_major_cities
US,79314,TX,33.5997,-103.0168,US_warm_coarse_step_2.5
US,79401,TX,33.5865,-101.8606,US_warm_major_cities
US,79601,TX,32.4682,-99.7182,US_warm_coarse_step_2.5
US,79714,TX,32.3201,-102.5409,US_warm_coarse_step_2.5
US,79845,TX,29.5573,-104.3551,US_warm_coarse_step_2.5
US,79901,TX,31.7584,-106.4783,US_warm_major_cities
US,84001,UT,40.3514,-110.2754,US_grid_step_1.6_nonwarm
US,84004,UT,40.4616,-111.7689,US_grid_step_1.6_nonwarm
US,84006,UT,40.5646,-112.0977,US_grid_step_1.6_nonwarm
US,84008,UT,40.0211,-109.1773,US_north_extra_step_0.9_lat40plus
US,84017,UT,40.8405,-111.3228,US_north_extra_step_0.9_lat40plus
US,84022,UT,40.2708,-112.6898,US_north_extra_step_0.9_lat40plus
US,84023,UT,40.9291,-109.391,US_north_extra_step_0.9_lat40plus
US,84027,UT,40.1575,-110.8226,US_north_extra_step_0.9_lat40plus
US,84034,UT,40.0366,-113.9853,US_north_extra_step_0.9_lat40plus
US,84301,UT,41.6093,-112.1241,US_north_extra_step_0.9_lat40plus
US,84510,UT,37.2161,-109.1871,US_grid_step_1.6_nonwarm
US,84513,UT,39.2122,-111.0196,US_midlat_extra_step_1.1_lat35_40
US,84515,UT,38.97,-109.3207,US_grid_step_1.6_nonwarm
US,84526,UT,39.6737,-110.856,US_midlat_extra_step_1.1_lat35_40
US,84620,UT,38.9222,-111.9341,US_grid_step_1.6_nonwarm
US,84624,UT,39.3755,-112.5319,US_midlat_extra_step_1.1_lat35_40
US,84626,UT,39.9739,-111.9554,US_midlat_extra_step_1.1_lat35_40
US,84710,UT,37.4699,-112.5484,US_grid_step_1.6_nonwarm
US,84711,UT,38.7168,-112.0657,US_grid_step_1.6_nonwarm
US,84712,UT,38.1015,-111.993,US_grid_step_1.6_nonwarm
US,84714,UT,37.8958,-113.6614,US_grid_step_1.6_nonwarm
US,84734,UT,38.2521,-110.8137,US_midlat_extra_step_1.1_lat35_40
US,22920,VA,37.9626,-78.841,US_grid_step_1.6_nonwarm
US,23001,VA,37.2882,-76.426,US_midlat_extra_step_1.1_lat35_40
US,23005,VA,37.7395,-77.4784,US_midlat_extra_step_1.1_lat35_40
US,23301,VA,37.7159,-75.6803,US_midlat_extra_step_1.1_lat35_40
US,23821,VA,36.8806,-77.9055,US_grid_step_1.6_nonwarm
US,24053,VA,36.6139,-80.5093,US_midlat_extra_step_1.1_lat35_40
US,24210,VA,36.6916,-82.02,US_grid_step_1.6_nonwarm
US,24215,VA,36.9234,-82.7964,US_midlat_extra_step_1.1_lat35_40
US,24517,VA,37.1222,-79.2911,US_midlat_extra_step_1.1_lat35_40
US,24520,VA,36.5894,-79.0202,US_midlat_extra_step_1.1_lat35_40
US,05030,VT,43.4107,-72.4298,US_north_extra_step_0.9_lat40plus
US,05033,VT,44.0006,-72.1406,US_far_north_extra_step_0.7_lat44plus
US,05055,VT,43.7404,-72.3016,US_state_min_fill_VT
US,05158,VT,43.0826,-72.4749,US_state_min_fill_VT
US,05260,VT,42.8098,-73.2534,US_state_min_fill_VT
US,05340,VT,43.1618,-72.9128,US_state_min_fill_VT
US,05354,VT,42.7565,-72.5115,US_state_min_fill_VT
US,05363,VT,42.8812,-72.8613,US_state_min_fill_VT
US,05408,VT,44.512,-73.2492,US_state_min_fill_VT
US,05441,VT,44.7914,-72.7697,US_state_min_fill_VT
US,05443,VT,44.146,-73.0717,US_far_north_extra_step_0.7_lat44plus
US,05463,VT,44.8781,-73.3386,US_state_min_fill_VT
US,05640,VT,44.3575,-72.5046,US_grid_step_1.6_nonwarm
US,05746,VT,43.7784,-72.699,US_state_min_fill_VT
US,05764,VT,43.5332,-73.2253,US_state_min_fill_VT
US,05770,VT,43.8862,-73.3054,US_state_min_fill_VT
US,05821,VT,44.3179,-72.0783,US_far_north_extra_step_0.7_lat44plus
US,05823,VT,45.0058,-72.1383,US_grid_step_1.6_nonwarm
US,05827,VT,44.6788,-72.3594,US_state_min_fill_VT
US,05837,VT,44.6517,-71.8675,US_state_min_fill_VT
US,05901,VT,44.9981,-71.7104,US_grid_step_1.6_nonwarm
US,05902,VT,45.0085,-71.4907,US_north_extra_step_0.9_lat40plus
US,98001,WA,47.3099,-122.2653,US_north_extra_step_0.9_lat40plus
US,98110,WA,47.6478,-122.538,US_far_north_extra_step_0.7_lat44plus
US,98220,WA,48.6752,-122.1914,US_grid_step_1.6_nonwarm
US,98221,WA,48.5004,-122.6309,US_north_extra_step_0.9_lat40plus
US,98223,WA,48.1829,-122.1121,US_north_extra_step_0.9_lat40plus
US,98224,WA,47.7671,-121.4814,US_north_extra_step_0.9_lat40plus
US,98225,WA,48.749,-122.4887,US_north_extra_step_0.9_lat40plus
US,98237,WA,48.531,-121.6643,US_far_north_extra_step_0.7_lat44plus
US,98304,WA,46.7531,-121.9898,US_north_extra_step_0.9_lat40plus
US,98305,WA,48.0673,-124.3054,US_grid_step_1.6_nonwarm
US,98343,WA,48.1362,-123.7354,US_north_extra_step_0.9_lat40plus
US,98350,WA,47.9052,-124.6261,US_far_north_extra_step_0.7_lat44plus
US,98357,WA,48.328,-124.6151,US_far_north_extra_step_0.7_lat44plus
US,98361,WA,46.65,-121.6553,US_far_north_extra_step_0.7_lat44plus
US,98381,WA,48.3032,-124.4685,US_far_north_extra_step_0.7_lat44plus
US,98520,WA,46.9843,-123.7963,US_grid_step_1.6_nonwarm
US,98522,WA,46.629,-123.0612,US_grid_step_1.6_nonwarm
US,98524,WA,47.3571,-122.8587,US_north_extra_step_0.9_lat40plus
US,98526,WA,47.4859,-123.9206,US_far_north_extra_step_0.7_lat44plus
US,98527,WA,46.6315,-123.9549,US_far_north_extra_step_0.7_lat44plus
US,98539,WA,46.6378,-123.2804,US_far_north_extra_step_0.7_lat44plus
US,98562,WA,47.2387,-124.2039,US_north_extra_step_0.9_lat40plus
US,98601,WA,45.9195,-122.4574,US_grid_step_1.6_nonwarm
US,98602,WA,45.8504,-121.3129,US_north_extra_step_0.9_lat40plus
US,98605,WA,45.7751,-121.6328,US_north_extra_step_0.9_lat40plus
US,98620,WA,45.832,-120.813,US_far_north_extra_step_0.7_lat44plus
US,98802,WA,47.4186,-120.2731,US_far_north_extra_step_0.7_lat44plus
US,98811,WA,47.7373,-120.369,US_grid_step_1.6_nonwarm
US,98812,WA,48.1206,-119.772,US_grid_step_1.6_nonwarm
US,98813,WA,48.0082,-119.6712,US_far_north_extra_step_0.7_lat44plus
US,98814,WA,48.2526,-120.1055,US_grid_step_1.6_nonwarm
US,98815,WA,47.5173,-120.5033,US_far_north_extra_step_0.7_lat44plus
US,98819,WA,48.5469,-119.7526,US_far_north_extra_step_0.7_lat44plus
US,98826,WA,47.6438,-120.6748,US_far_north_extra_step_0.7_lat44plus
US,98827,WA,48.8696,-119.6427,US_north_extra_step_0.9_lat40plus
US,98852,WA,48.3093,-120.6565,US_far_north_extra_step_0.7_lat44plus
US,98920,WA,46.4043,-120.607,US_north_extra_step_0.9_lat40plus
US,98922,WA,47.2063,-120.9685,US_north_extra_step_0.9_lat40plus
US,98925,WA,47.233,-121.1772,US_far_north_extra_step_0.7_lat44plus
US,99001,WA,47.6438,-117.5921,US_grid_step_1.6_nonwarm
US,99003,WA,47.9192,-117.2921,US_north_extra_step_0.9_lat40plus
US,99008,WA,47.5379,-117.9071,US_far_north_extra_step_0.7_lat44plus
US,99101,WA,48.3364,-117.9579,US_grid_step_1.6_nonwarm
US,99102,WA,46.792,-117.2503,US_north_extra_step_0.9_lat40plus
US,99103,WA,47.7632,-118.9123,US_grid_step_1.6_nonwarm
US,99104,WA,47.0793,-117.177,US_far_north_extra_step_0.7_lat44plus
US,99105,WA,46.8591,-118.1611,US_north_extra_step_0.9_lat40plus
US,99107,WA,48.8427,-118.1828,US_north_extra_step_0.9_lat40plus
US,99109,WA,48.2876,-117.7754,US_far_north_extra_step_0.7_lat44plus
US,99115,WA,47.5966,-119.2758,US_north_extra_step_0.9_lat40plus
US,99118,WA,48.9108,-118.6452,US_far_north_extra_step_0.7_lat44plus
US,99119,WA,48.3915,-117.3295,US_far_north_extra_step_0.7_lat44plus
US,99139,WA,48.741,-117.4172,US_north_extra_step_0.9_lat40plus
US,99144,WA,47.3778,-118.5043,US_far_north_extra_step_0.7_lat44plus
US,99320,WA,46.2806,-119.4913,US_north_extra_step_0.9_lat40plus
US,99321,WA,46.8484,-119.9121,US_north_extra_step_0.9_lat40plus
US,99322,WA,45.9597,-120.1042,US_north_extra_step_0.9_lat40plus
US,99324,WA,46.0471,-118.4093,US_north_extra_step_0.9_lat40plus
US,99326,WA,46.6643,-118.8545,US_far_north_extra_step_0.7_lat44plus
US,99329,WA,46.1408,-118.1531,US_far_north_extra_step_0.7_lat44plus
US,99401,WA,46.1285,-117.0883,US_grid_step_1.6_nonwarm
US,53001,WI,43.6151,-88.0254,US_north_extra_step_0.9_lat40plus
US,53002,WI,43.4681,-88.3539,US_north_extra_step_0.9_lat40plus
US,53014,WI,44.0242,-88.1827,US_far_north_extra_step_0.7_lat44plus
US,53501,WI,42.6055,-89.0704,US_north_extra_step_0.9_lat40plus
US,53502,WI,42.7155,-89.4357,US_north_extra_step_0.9_lat40plus
US,53518,WI,43.2366,-90.5873,US_north_extra_step_0.9_lat40plus
US,53910,WI,43.8967,-89.8219,US_grid_step_1.6_nonwarm
US,54101,WI,44.7869,-88.0571,US_grid_step_1.6_nonwarm
US,54102,WI,45.4989,-87.9643,US_north_extra_step_0.9_lat40plus
US,54111,WI,44.811,-88.4183,US_far_north_extra_step_0.7_lat44plus
US,54201,WI,44.6101,-87.4578,US_grid_step_1.6_nonwarm
US,54202,WI,45.0565,-87.1676,US_far_north_extra_step_0.7_lat44plus
US,54405,WI,44.9641,-90.2994,US_grid_step_1.6_nonwarm
US,54408,WI,45.0088,-89.3578,US_north_extra_step_0.9_lat40plus
US,54410,WI,44.5419,-90.037,US_far_north_extra_step_0.7_lat44plus
US,54421,WI,44.9117,-90.3144,US_far_north_extra_step_0.7_lat44plus
US,54511,WI,45.7118,-88.8104,US_north_extra_step_0.9_lat40plus
US,54512,WI,46.1112,-89.6325,US_far_north_extra_step_0.7_lat44plus
US,54513,WI,45.5514,-90.116,US_north_extra_step_0.9_lat40plus
US,54514,WI,46.0184,-90.4821,US_far_north_extra_step_0.7_lat44plus
US,54519,WI,46.044,-89.2389,US_far_north_extra_step_0.7_lat44plus
US,54610,WI,44.4294,-91.8079,US_north_extra_step_0.9_lat40plus
US,54611,WI,44.4452,-90.9356,US_north_extra_step_0.9_lat40plus
US,54612,WI,44.2539,-91.4805,US_far_north_extra_step_0.7_lat44plus
US,54613,WI,44.0529,-89.8962,US_far_north_extra_step_0.7_lat44plus
US,54614,WI,43.8687,-90.9809,US_north_extra_step_0.9_lat40plus
US,54620,WI,44.0876,-90.8423,US_far_north_extra_step_0.7_lat44plus
US,54630,WI,44.0888,-91.3588,US_far_north_extra_step_0.7_lat44plus
US,54720,WI,44.8021,-91.4382,US_far_north_extra_step_0.7_lat44plus
US,54723,WI,44.6166,-92.4469,US_far_north_extra_step_0.7_lat44plus
US,54805,WI,45.4195,-92.0027,US_grid_step_1.6_nonwarm
US,54806,WI,46.5586,-90.7388,US_grid_step_1.6_nonwarm
US,54813,WI,45.619,-92.0196,US_far_north_extra_step_0.7_lat44plus
US,54814,WI,46.8354,-90.8217,US_north_extra_step_0.9_lat40plus
US,54816,WI,46.5019,-91.0769,US_north_extra_step_0.9_lat40plus
US,54817,WI,45.6403,-91.5776,US_north_extra_step_0.9_lat40plus
US,54909,WI,44.2898,-89.3584,US_north_extra_step_0.9_lat40plus
US,54911,WI,44.2773,-88.3976,US_north_extra_step_0.9_lat40plus
US,54930,WI,44.0275,-89.4943,US_far_north_extra_step_0.7_lat44plus
US,54934,WI,44.0032,-88.8397,US_far_north_extra_step_0.7_lat44plus
US,24910,WV,37.7371,-80.661,US_grid_step_1.6_nonwarm
US,24915,WV,38.4546,-79.7934,US_midlat_extra_step_1.1_lat35_40
US,25231,WV,38.6104,-81.5587,US_midlat_extra_step_1.1_lat35_40
US,25507,WV,38.3965,-82.5588,US_state_min_fill_WV
US,25606,WV,37.7687,-81.8371,US_grid_step_1.6_nonwarm
US,26050,WV,40.614,-80.6011,US_state_min_fill_WV
US,26210,WV,38.8993,-80.2269,US_grid_step_1.6_nonwarm
US,26321,WV,39.0425,-80.6882,US_midlat_extra_step_1.1_lat35_40
US,26525,WV,39.6454,-79.6159,US_state_min_fill_WV
US,26704,WV,39.2998,-78.5931,US_midlat_extra_step_1.1_lat35_40
US,82050,WY,41.4342,-104.1505,US_grid_step_1.6_nonwarm
US,82051,WY,41.5735,-105.6112,US_grid_step_1.6_nonwarm
US,82052,WY,41.1219,-105.3047,US_north_extra_step_0.9_lat40plus
US,82190,WY,44.7957,-110.6137,US_north_extra_step_0.9_lat40plus
US,82210,WY,41.7487,-104.8179,US_grid_step_1.6_nonwarm
US,82213,WY,42.5004,-105.0,US_north_extra_step_0.9_lat40plus
US,82321,WY,41.0312,-107.6687,US_grid_step_1.6_nonwarm
US,82322,WY,42.2327,-107.5633,US_north_extra_step_0.9_lat40plus
US,82324,WY,41.6874,-106.4146,US_north_extra_step_0.9_lat40plus
US,82401,WY,44.0138,-107.9563,US_far_north_extra_step_0.7_lat44plus
US,82410,WY,44.3788,-108.0438,US_grid_step_1.6_nonwarm
US,82412,WY,44.7844,-108.544,US_far_north_extra_step_0.7_lat44plus
US,82414,WY,44.5231,-109.0756,US_north_extra_step_0.9_lat40plus
US,82420,WY,44.8841,-108.4638,US_far_north_extra_step_0.7_lat44plus
US,82428,WY,44.2507,-107.6053,US_far_north_extra_step_0.7_lat44plus
US,82430,WY,43.8042,-108.1805,US_north_extra_step_0.9_lat40plus
US,82450,WY,44.4686,-109.4377,US_far_north_extra_step_0.7_lat44plus
US,82510,WY,42.9679,-108.4941,US_grid_step_1.6_nonwarm
US,82512,WY,43.3716,-109.296,US_north_extra_step_0.9_lat40plus
US,82620,WY,42.5302,-106.76,US_grid_step_1.6_nonwarm
US,82630,WY,43.1789,-107.2576,US_north_extra_step_0.9_lat40plus
US,82633,WY,42.7626,-105.3855,US_north_extra_step_0.9_lat40plus
US,82635,WY,43.4074,-106.2638,US_north_extra_step_0.9_lat40plus
US,82642,WY,43.3284,-107.6488,US_north_extra_step_0.9_lat40plus
US,82710,WY,44.7473,-104.1931,US_grid_step_1.6_nonwarm
US,82711,WY,44.6873,-104.4414,US_north_extra_step_0.9_lat40plus
US,82715,WY,44.0775,-104.1383,US_far_north_extra_step_0.7_lat44plus
US,82716,WY,44.282,-105.4974,US_far_north_extra_step_0.7_lat44plus
US,82718,WY,43.9282,-105.5492,US_north_extra_step_0.9_lat40plus
US,82723,WY,43.999,-104.4226,US_north_extra_step_0.9_lat40plus
US,82730,WY,44.0893,-104.6352,US_far_north_extra_step_0.7_lat44plus
US,82831,WY,44.6899,-106.1092,US_grid_step_1.6_nonwarm
US,82832,WY,44.6003,-106.7954,US_north_extra_step_0.9_lat40plus
US,82836,WY,44.878,-107.3026,US_north_extra_step_0.9_lat40plus
US,82922,WY,43.2238,-110.3353,US_grid_step_1.6_nonwarm
US,82923,WY,42.6881,-109.5401,US_north_extra_step_0.9_lat40plus
US,82932,WY,42.0834,-109.4184,US_north_extra_step_0.9_lat40plus
US,82933,WY,41.3166,-110.3843,US_north_extra_step_0.9_lat40plus
US,82942,WY,41.6802,-108.7857,US_north_extra_step_0.9_lat40plus
US,83110,WY,42.7128,-110.942,US_grid_step_1.6_nonwarm
US,83113,WY,42.6483,-110.1246,US_grid_step_1.6_nonwarm
US,83116,WY,41.7839,-110.54,US_north_extra_step_0.9_lat40plus
US,83414,WY,43.8886,-110.9492,US_grid_step_1.6_nonwarm
CA,T1C 1Z2,AB,50.057497,-110.683666,south_of_55deg_grid_sample_1.5deg
CA,T1H 1B5,AB,49.994378,-113.364532,south_of_55deg_grid_sample_1.5deg
CA,T1H 3Z6,AB,49.703239,-112.791343,south_of_55deg_grid_sample_1.5deg
CA,T1Y 1V4,AB,51.074348,-113.937953,south_of_55deg_grid_sample_1.5deg
CA,T2C 1B0,AB,52.007611,-110.775889,south_of_55deg_grid_sample_1.5deg
CA,T3J 0B0,AB,50.788913,-112.472536,south_of_55deg_grid_sample_1.5deg
CA,T5H 5H2,AB,51.887832,-113.909643,south_of_55deg_grid_sample_1.5deg
CA,T8E 1J1,AB,53.416478,-113.128203,south_of_55deg_grid_sample_1.5deg
CA,T8N 2C7,AB,53.656059,-111.654979,south_of_55deg_grid_sample_1.5deg
CA,T8N 4G5,AB,51.886369,-115.125947,south_of_55deg_grid_sample_1.5deg
CA,T8N 4Z3,AB,53.64757,-113.651711,south_of_55deg_grid_sample_1.5deg
CA,T9H 0A1,AB,,,CA_northern_hub_seed_fort_mcmurray
CA,V1T 1G3,BC,50.257253,-119.246881,south_of_55deg_grid_sample_1.5deg
CA,V1T 6K4,BC,50.267209,-119.279348,south_of_55deg_grid_sample_1.5deg
CA,V1T 8K1,BC,50.249854,-118.974378,south_of_55deg_grid_sample_1.5deg
CA,V1V 3A5,BC,49.509078,-115.757916,south_of_55deg_grid_sample_1.5deg
CA,V1Y 2H3,BC,49.885677,-119.478385,south_of_55deg_grid_sample_1.5deg
CA,V2L 0A1,BC,,,CA_northern_hub_seed_prince_george
CA,V2L 2K3,BC,53.915656,-122.751148,south_of_55deg_grid_sample_1.5deg
CA,V2L 7C1,BC,53.030249,-122.62717,south_of_55deg_grid_sample_1.5deg
CA,V3R 3K8,BC,49.515471,-121.756374,south_of_55deg_grid_sample_1.5deg
CA,V3R 3T2,BC,49.189849,-122.817532,south_of_55deg_grid_sample_1.5deg
CA,V6N 1E9,BC,49.3784,-123.779738,south_of_55deg_grid_sample_1.5deg
CA,V8J 3B3,BC,,,CA_northern_hub_seed_prince_rupert
CA,V8P 3A9,BC,48.464921,-123.326409,south_of_55deg_grid_sample_1.5deg
CA,R2M 5J6,MB,49.850014,-98.313432,south_of_55deg_grid_sample_1.5deg
CA,R3J 1B3,MB,49.887473,-97.250434,south_of_55deg_grid_sample_1.5deg
CA,R7B 0N4,MB,49.823131,-99.965799,south_of_55deg_grid_sample_1.5deg
CA,E1B 3G7,NB,46.050968,-64.812035,south_of_55deg_grid_sample_1.5deg
CA,E1C 1M8,NB,47.393596,-65.858058,south_of_55deg_grid_sample_1.5deg
CA,E2E 4K4,NB,45.40468,-65.962112,south_of_55deg_grid_sample_1.5deg
CA,E3C 1K3,NB,45.961781,-66.767045,south_of_55deg_grid_sample_1.5deg
CA,E3C 2J7,NB,45.914603,-66.747681,south_of_55deg_grid_sample_1.5deg
CA,A1E 6B7,NL,47.530912,-52.75645,south_of_55deg_grid_sample_1.5deg
CA,A2V 2A2,NL,,,CA_northern_hub_seed_labrador_city
CA,B1S 1M6,NS,46.101335,-60.220661,south_of_55deg_grid_sample_1.5deg
CA,B2N 2L4,NS,45.098541,-64.27815,south_of_55deg_grid_sample_1.5deg
CA,B2X 1Y6,NS,44.68721,-63.536771,south_of_55deg_grid_sample_1.5deg
CA,X0E 0T0,NT,,,CA_northern_city_seed_inuvik
CA,X1A 0A1,NT,,,CA_northern_city_seed_yellowknife
CA,X0A 0H0,NU,,,CA_northern_city_seed_iqaluit
CA,K1H 2N7,ON,45.900645,-77.254107,south_of_55deg_grid_sample_1.5deg
CA,K2G 0R3,ON,45.336773,-75.782578,south_of_55deg_grid_sample_1.5deg
CA,K7P 1A6,ON,44.249684,-76.580516,south_of_55deg_grid_sample_1.5deg
CA,K8B 1B4,ON,45.807023,-77.081601,south_of_55deg_grid_sample_1.5deg
CA,K8R 1B9,ON,44.150642,-77.460814,south_of_55deg_grid_sample_1.5deg
CA,K9H 6P5,ON,44.338155,-78.318853,south_of_55deg_grid_sample_1.5deg
CA,K9V 3Y4,ON,44.362104,-78.750552,south_of_55deg_grid_sample_1.5deg
CA,L4V 1E5,ON,44.578284,-80.812346,south_of_55deg_grid_sample_1.5deg
CA,L5B 0C1,ON,43.58952,-79.634515,south_of_55deg_grid_sample_1.5deg
CA,N5R 1A7,ON,42.748637,-81.194465,south_of_55deg_grid_sample_1.5deg
CA,N5W 4P8,ON,42.999324,-81.189223,south_of_55deg_grid_sample_1.5deg
CA,N7M 1E8,ON,42.404849,-82.190249,south_of_55deg_grid_sample_1.5deg
CA,N7W 1C5,ON,42.964803,-82.346151,south_of_55deg_grid_sample_1.5deg
CA,P1C 1L5,ON,46.339925,-79.431493,south_of_55deg_grid_sample_1.5deg
CA,P3C 5P8,ON,46.481217,-81.014582,south_of_55deg_grid_sample_1.5deg
CA,P4R 1H4,ON,48.476968,-81.375128,south_of_55deg_grid_sample_1.5deg
CA,P6B 5B1,ON,46.527422,-84.315465,south_of_55deg_grid_sample_1.5deg
CA,P7B 0A1,ON,,,CA_northern_hub_seed_thunder_bay
CA,P7E 1A2,ON,48.387601,-89.238723,south_of_55deg_grid_sample_1.5deg
CA,P7K 1N2,ON,48.353744,-89.353746,south_of_55deg_grid_sample_1.5deg
CA,C1C 1C9,PE,46.280412,-63.105839,south_of_55deg_grid_sample_1.5deg
CA,G2N 5P2,QC,48.36137,-68.459562,south_of_55deg_grid_sample_1.5deg
CA,G4S 0A1,QC,,,CA_northern_hub_seed_sept_iles
CA,G6C 1T3,QC,46.76161,-71.132615,south_of_55deg_grid_sample_1.5deg
CA,G7J 2Y4,QC,48.414978,-71.077433,south_of_55deg_grid_sample_1.5deg
CA,G7Z 1A7,QC,48.433233,-71.269668,south_of_55deg_grid_sample_1.5deg
CA,G8Y 4C2,QC,46.349859,-72.59174,south_of_55deg_grid_sample_1.5deg
CA,H7M 1E5,QC,45.60423,-73.726976,south_of_55deg_grid_sample_1.5deg
CA,J1H 2M6,QC,45.389812,-71.893985,south_of_55deg_grid_sample_1.5deg
CA,J7L 1C9,QC,45.750111,-73.634563,south_of_55deg_grid_sample_1.5deg
CA,J8Z 1H9,QC,45.493081,-75.745135,south_of_55deg_grid_sample_1.5deg
CA,J9Y 0J4,QC,48.193132,-78.671135,south_of_55deg_grid_sample_1.5deg
CA,J9Y 1S4,QC,48.107813,-79.151027,south_of_55deg_grid_sample_1.5deg
CA,S2V 1B6,SK,51.208296,-102.461879,south_of_55deg_grid_sample_1.5deg
CA,S4T 7X3,SK,50.624439,-103.55564,south_of_55deg_grid_sample_1.5deg
CA,S4V 2A9,SK,50.422251,-104.546028,south_of_55deg_grid_sample_1.5deg
CA,S6X 0A3,SK,53.251194,-110.001525,south_of_55deg_grid_sample_1.5deg
CA,S6X 1C9,SK,53.191855,-105.700569,south_of_55deg_grid_sample_1.5deg
CA,S7M 2K6,SK,52.123209,-106.688924,south_of_55deg_grid_sample_1.5deg
CA,Y1A 0C3,YT,,,CA_northern_city_seed_whitehorse
